{
  "type": "FeatureCollection",
  "features": [
    {
      "type": "Feature",
      "geometry": {
        "coordinates": [
          [
            -57.592484,
            -38.086445
          ],
          [
            -57.592452,
            -38.08647
          ],
          [
            -57.591255,
            -38.087355
          ],
          [
            -57.590076,
            -38.088207
          ],
          [
            -57.588953,
            -38.089099
          ],
          [
            -57.587768,
            -38.089986
          ],
          [
            -57.586443,
            -38.091001
          ],
          [
            -57.585172,
            -38.091968
          ],
          [
            -57.583794,
            -38.093003
          ],
          [
            -57.582444,
            -38.094017
          ],
          [
            -57.583047,
            -38.094513
          ],
          [
            -57.583664,
            -38.095022
          ],
          [
            -57.583677,
            -38.095033
          ],
          [
            -57.582304,
            -38.096076
          ],
          [
            -57.581751,
            -38.096495
          ],
          [
            -57.58158,
            -38.096623
          ],
          [
            -57.581257,
            -38.09687
          ],
          [
            -57.580281,
            -38.097602
          ],
          [
            -57.578932,
            -38.098621
          ],
          [
            -57.577542,
            -38.09967
          ],
          [
            -57.576853,
            -38.100191
          ],
          [
            -57.576638,
            -38.100353
          ],
          [
            -57.57638,
            -38.100794
          ],
          [
            -57.575987,
            -38.101578
          ],
          [
            -57.575617,
            -38.102316
          ],
          [
            -57.575228,
            -38.103092
          ],
          [
            -57.575031,
            -38.103485
          ],
          [
            -57.574834,
            -38.103879
          ],
          [
            -57.574463,
            -38.104619
          ],
          [
            -57.574076,
            -38.105389
          ],
          [
            -57.573763,
            -38.106053
          ],
          [
            -57.573678,
            -38.106328
          ],
          [
            -57.573604,
            -38.106543
          ],
          [
            -57.573292,
            -38.106779
          ],
          [
            -57.574846,
            -38.107603
          ],
          [
            -57.575118,
            -38.107747
          ],
          [
            -57.576608,
            -38.108551
          ],
          [
            -57.576888,
            -38.1087
          ],
          [
            -57.577217,
            -38.108874
          ],
          [
            -57.57748,
            -38.109006
          ],
          [
            -57.577828,
            -38.109165
          ],
          [
            -57.578131,
            -38.1093
          ],
          [
            -57.578523,
            -38.109489
          ],
          [
            -57.578944,
            -38.109663
          ],
          [
            -57.579336,
            -38.109817
          ],
          [
            -57.579796,
            -38.10998
          ],
          [
            -57.580582,
            -38.110226
          ],
          [
            -57.580966,
            -38.110342
          ],
          [
            -57.581776,
            -38.110586
          ],
          [
            -57.582793,
            -38.110913
          ],
          [
            -57.583485,
            -38.111149
          ],
          [
            -57.583998,
            -38.111354
          ],
          [
            -57.584015,
            -38.111362
          ],
          [
            -57.584113,
            -38.111407
          ],
          [
            -57.584369,
            -38.111526
          ],
          [
            -57.584366,
            -38.111423
          ],
          [
            -57.584372,
            -38.111339
          ],
          [
            -57.584387,
            -38.111255
          ],
          [
            -57.584431,
            -38.111164
          ],
          [
            -57.584755,
            -38.110911
          ],
          [
            -57.586007,
            -38.109915
          ],
          [
            -57.587407,
            -38.108867
          ],
          [
            -57.588715,
            -38.107887
          ],
          [
            -57.590088,
            -38.106846
          ],
          [
            -57.591456,
            -38.105828
          ],
          [
            -57.592824,
            -38.104796
          ],
          [
            -57.594185,
            -38.103774
          ],
          [
            -57.594206,
            -38.103758
          ],
          [
            -57.595576,
            -38.102728
          ],
          [
            -57.596941,
            -38.101702
          ],
          [
            -57.597515,
            -38.10127
          ],
          [
            -57.598224,
            -38.100738
          ],
          [
            -57.598477,
            -38.100547
          ],
          [
            -57.601849,
            -38.098013
          ],
          [
            -57.604068,
            -38.096342
          ],
          [
            -57.604053,
            -38.096329
          ]
        ],
        "type": "LineString"
      },
      "properties": {
        "linea": "501",
        "ramal": "Santa Rosa C",
        "nombre": "Línea 501 - Santa Rosa C"
      }
    },
    {
      "type": "Feature",
      "geometry": {
        "type": "Point",
        "coordinates": [
          -57.5924649,
          -38.08643
        ]
      },
      "properties": {
        "linea": "501",
        "ramal": "Santa Rosa C",
        "numero_camara": "645",
        "direccion": "Avenida Jorge Newbery & Calle 429, Mar del Plata, Provincia de Buenos Aires, Argentina",
        "orden": 467
      }
    },
    {
      "type": "Feature",
      "geometry": {
        "type": "Point",
        "coordinates": [
          -57.5836678,
          -38.095019
        ]
      },
      "properties": {
        "linea": "501",
        "ramal": "Santa Rosa C",
        "numero_camara": "636",
        "direccion": "Calle 431 & Calle 18, Mar del Plata, Provincia de Buenos Aires, Argentina",
        "orden": 468
      }
    },
    {
      "type": "Feature",
      "geometry": {
        "type": "Point",
        "coordinates": [
          -57.5839977,
          -38.111384
        ]
      },
      "properties": {
        "linea": "501",
        "ramal": "Santa Rosa C",
        "numero_camara": "492",
        "direccion": "Ruta Provincial 11 & Calle 461, Mar del Plata, Provincia de Buenos Aires, Argentina",
        "orden": 469
      }
    },
    {
      "type": "Feature",
      "geometry": {
        "type": "Point",
        "coordinates": [
          -57.5942134,
          -38.103764
        ]
      },
      "properties": {
        "linea": "501",
        "ramal": "Santa Rosa C",
        "numero_camara": "637",
        "direccion": "Calle 461 & Calle 18, Mar del Plata, Provincia de Buenos Aires, Argentina",
        "orden": 470
      }
    },
    {
      "type": "Feature",
      "geometry": {
        "type": "Point",
        "coordinates": [
          -57.6040382,
          -38.09634
        ]
      },
      "properties": {
        "linea": "501",
        "ramal": "Santa Rosa C",
        "numero_camara": "638",
        "direccion": "Avenida Jorge Newbery & Calle 461, Mar del Plata, Provincia de Buenos Aires, Argentina",
        "orden": 471
      }
    },
    {
      "type": "Feature",
      "geometry": {
        "coordinates": [
          [
            -57.608149,
            -37.991071
          ],
          [
            -57.60724,
            -37.991765
          ],
          [
            -57.606823,
            -37.992082
          ],
          [
            -57.606692,
            -37.99218
          ],
          [
            -57.606379,
            -37.992418
          ],
          [
            -57.606359,
            -37.992433
          ],
          [
            -57.605515,
            -37.993073
          ],
          [
            -57.60462,
            -37.993751
          ],
          [
            -57.604488,
            -37.99385
          ],
          [
            -57.603697,
            -37.994445
          ],
          [
            -57.602848,
            -37.995082
          ],
          [
            -57.602832,
            -37.995094
          ],
          [
            -57.601967,
            -37.995749
          ],
          [
            -57.601123,
            -37.996388
          ],
          [
            -57.601102,
            -37.996404
          ],
          [
            -57.60102,
            -37.996466
          ],
          [
            -57.600326,
            -37.996991
          ],
          [
            -57.60026,
            -37.997041
          ],
          [
            -57.599367,
            -37.997717
          ],
          [
            -57.598521,
            -37.998358
          ],
          [
            -57.598046,
            -37.998717
          ],
          [
            -57.597966,
            -37.998829
          ],
          [
            -57.597942,
            -37.998886
          ],
          [
            -57.597924,
            -37.998936
          ],
          [
            -57.597908,
            -37.999
          ],
          [
            -57.597901,
            -37.999055
          ],
          [
            -57.597901,
            -37.999118
          ],
          [
            -57.597912,
            -37.999191
          ],
          [
            -57.597928,
            -37.999268
          ],
          [
            -57.597938,
            -37.999303
          ],
          [
            -57.597943,
            -37.999323
          ],
          [
            -57.597965,
            -37.999402
          ],
          [
            -57.598005,
            -37.999454
          ],
          [
            -57.598019,
            -37.99947
          ],
          [
            -57.598338,
            -37.999838
          ],
          [
            -57.598412,
            -37.999921
          ],
          [
            -57.598723,
            -38.000291
          ],
          [
            -57.599032,
            -38.000651
          ],
          [
            -57.599206,
            -38.000852
          ],
          [
            -57.59939,
            -38.001056
          ],
          [
            -57.599555,
            -38.001232
          ],
          [
            -57.599754,
            -38.001423
          ],
          [
            -57.599952,
            -38.001584
          ],
          [
            -57.600058,
            -38.001666
          ],
          [
            -57.600247,
            -38.001803
          ],
          [
            -57.600613,
            -38.002045
          ],
          [
            -57.601596,
            -38.002621
          ],
          [
            -57.602398,
            -38.003058
          ],
          [
            -57.602603,
            -38.00317
          ],
          [
            -57.60358,
            -38.0037
          ],
          [
            -57.603498,
            -38.003742
          ],
          [
            -57.603437,
            -38.00379
          ],
          [
            -57.602442,
            -38.003241
          ],
          [
            -57.601481,
            -38.002717
          ],
          [
            -57.600908,
            -38.002393
          ],
          [
            -57.600486,
            -38.002144
          ],
          [
            -57.600491,
            -38.00214
          ],
          [
            -57.600555,
            -38.002091
          ],
          [
            -57.600613,
            -38.002045
          ],
          [
            -57.601596,
            -38.002621
          ],
          [
            -57.602398,
            -38.003058
          ],
          [
            -57.602603,
            -38.00317
          ],
          [
            -57.60358,
            -38.0037
          ],
          [
            -57.603498,
            -38.003742
          ],
          [
            -57.603437,
            -38.00379
          ],
          [
            -57.603356,
            -38.003857
          ],
          [
            -57.603813,
            -38.004166
          ],
          [
            -57.604222,
            -38.004507
          ],
          [
            -57.605021,
            -38.005189
          ],
          [
            -57.605836,
            -38.005866
          ],
          [
            -57.604929,
            -38.006565
          ],
          [
            -57.604079,
            -38.007197
          ],
          [
            -57.60407,
            -38.007204
          ],
          [
            -57.603238,
            -38.007837
          ],
          [
            -57.604082,
            -38.008537
          ],
          [
            -57.604866,
            -38.009185
          ],
          [
            -57.604887,
            -38.009203
          ],
          [
            -57.604031,
            -38.009845
          ],
          [
            -57.603133,
            -38.010525
          ],
          [
            -57.602315,
            -38.011143
          ],
          [
            -57.601893,
            -38.011108
          ],
          [
            -57.601804,
            -38.011095
          ],
          [
            -57.601847,
            -38.011002
          ],
          [
            -57.601874,
            -38.010919
          ],
          [
            -57.6019,
            -38.0108
          ],
          [
            -57.602293,
            -38.011125
          ],
          [
            -57.602315,
            -38.011143
          ],
          [
            -57.601434,
            -38.011809
          ],
          [
            -57.600643,
            -38.012407
          ],
          [
            -57.599753,
            -38.013079
          ],
          [
            -57.598919,
            -38.01371
          ],
          [
            -57.597948,
            -38.014444
          ],
          [
            -57.597042,
            -38.015129
          ],
          [
            -57.597012,
            -38.015105
          ],
          [
            -57.596208,
            -38.014469
          ],
          [
            -57.594929,
            -38.015403
          ],
          [
            -57.594067,
            -38.016051
          ],
          [
            -57.593171,
            -38.01673
          ],
          [
            -57.59234,
            -38.017358
          ],
          [
            -57.593157,
            -38.01804
          ],
          [
            -57.593169,
            -38.01805
          ],
          [
            -57.592338,
            -38.01868
          ],
          [
            -57.591477,
            -38.019331
          ],
          [
            -57.590816,
            -38.019831
          ],
          [
            -57.590807,
            -38.019838
          ],
          [
            -57.590503,
            -38.020048
          ],
          [
            -57.590202,
            -38.020288
          ],
          [
            -57.589949,
            -38.020473
          ],
          [
            -57.589107,
            -38.021113
          ],
          [
            -57.588906,
            -38.021489
          ],
          [
            -57.58882,
            -38.021626
          ],
          [
            -57.588737,
            -38.021747
          ],
          [
            -57.58867,
            -38.021845
          ],
          [
            -57.588602,
            -38.021934
          ],
          [
            -57.588539,
            -38.022005
          ],
          [
            -57.588458,
            -38.02208
          ],
          [
            -57.587591,
            -38.022743
          ],
          [
            -57.586773,
            -38.023365
          ],
          [
            -57.586727,
            -38.0234
          ],
          [
            -57.585802,
            -38.02411
          ],
          [
            -57.586277,
            -38.024512
          ],
          [
            -57.587248,
            -38.023769
          ],
          [
            -57.586789,
            -38.023379
          ],
          [
            -57.586773,
            -38.023365
          ],
          [
            -57.586727,
            -38.0234
          ],
          [
            -57.585802,
            -38.02411
          ],
          [
            -57.584929,
            -38.024764
          ],
          [
            -57.58408,
            -38.025419
          ],
          [
            -57.583232,
            -38.026065
          ],
          [
            -57.582381,
            -38.026715
          ],
          [
            -57.58143,
            -38.02744
          ],
          [
            -57.581255,
            -38.027294
          ],
          [
            -57.581095,
            -38.027161
          ],
          [
            -57.581085,
            -38.027153
          ],
          [
            -57.580266,
            -38.026475
          ],
          [
            -57.579293,
            -38.027213
          ],
          [
            -57.578362,
            -38.027863
          ],
          [
            -57.579218,
            -38.028575
          ],
          [
            -57.578388,
            -38.029191
          ],
          [
            -57.57752,
            -38.029843
          ],
          [
            -57.576666,
            -38.030493
          ],
          [
            -57.575794,
            -38.031137
          ],
          [
            -57.575758,
            -38.031163
          ],
          [
            -57.574928,
            -38.031771
          ],
          [
            -57.575117,
            -38.031906
          ],
          [
            -57.575287,
            -38.032043
          ],
          [
            -57.574413,
            -38.032696
          ],
          [
            -57.573561,
            -38.033332
          ],
          [
            -57.572676,
            -38.034004
          ],
          [
            -57.571837,
            -38.034645
          ],
          [
            -57.570865,
            -38.03538
          ],
          [
            -57.570847,
            -38.035365
          ],
          [
            -57.570693,
            -38.035237
          ],
          [
            -57.570521,
            -38.035095
          ],
          [
            -57.570012,
            -38.035477
          ],
          [
            -57.569456,
            -38.035917
          ],
          [
            -57.569118,
            -38.036182
          ],
          [
            -57.568779,
            -38.036441
          ],
          [
            -57.56844,
            -38.036698
          ],
          [
            -57.568076,
            -38.036955
          ],
          [
            -57.567685,
            -38.03726
          ],
          [
            -57.567177,
            -38.037649
          ],
          [
            -57.566874,
            -38.037871
          ],
          [
            -57.565982,
            -38.038525
          ],
          [
            -57.56514,
            -38.039157
          ],
          [
            -57.565128,
            -38.039166
          ],
          [
            -57.564549,
            -38.039592
          ],
          [
            -57.564244,
            -38.039787
          ],
          [
            -57.563233,
            -38.040302
          ],
          [
            -57.563405,
            -38.040444
          ],
          [
            -57.563444,
            -38.040476
          ],
          [
            -57.564242,
            -38.041137
          ],
          [
            -57.565065,
            -38.041818
          ],
          [
            -57.56587,
            -38.042484
          ],
          [
            -57.566683,
            -38.043158
          ],
          [
            -57.567487,
            -38.043848
          ],
          [
            -57.568341,
            -38.043201
          ],
          [
            -57.568371,
            -38.043179
          ],
          [
            -57.569199,
            -38.043887
          ],
          [
            -57.569997,
            -38.044568
          ],
          [
            -57.570879,
            -38.045324
          ],
          [
            -57.571754,
            -38.044666
          ],
          [
            -57.571732,
            -38.044648
          ],
          [
            -57.570856,
            -38.043924
          ],
          [
            -57.569997,
            -38.044568
          ],
          [
            -57.570879,
            -38.045324
          ],
          [
            -57.57176,
            -38.046051
          ],
          [
            -57.572565,
            -38.046715
          ],
          [
            -57.573373,
            -38.047381
          ],
          [
            -57.574206,
            -38.048069
          ],
          [
            -57.575033,
            -38.048751
          ],
          [
            -57.575838,
            -38.049415
          ],
          [
            -57.576681,
            -38.048781
          ],
          [
            -57.576703,
            -38.048765
          ],
          [
            -57.575898,
            -38.048098
          ],
          [
            -57.575073,
            -38.047415
          ],
          [
            -57.574275,
            -38.046749
          ],
          [
            -57.573437,
            -38.04606
          ],
          [
            -57.572632,
            -38.045394
          ],
          [
            -57.571754,
            -38.044666
          ],
          [
            -57.572603,
            -38.044033
          ],
          [
            -57.573438,
            -38.043399
          ],
          [
            -57.574338,
            -38.042721
          ],
          [
            -57.57517,
            -38.042081
          ],
          [
            -57.576056,
            -38.041438
          ],
          [
            -57.577131,
            -38.040618
          ],
          [
            -57.577109,
            -38.0406
          ],
          [
            -57.576219,
            -38.039858
          ],
          [
            -57.575147,
            -38.040684
          ],
          [
            -57.576056,
            -38.041438
          ],
          [
            -57.57517,
            -38.042081
          ],
          [
            -57.574338,
            -38.042721
          ],
          [
            -57.573438,
            -38.043399
          ],
          [
            -57.572603,
            -38.044033
          ],
          [
            -57.571754,
            -38.044666
          ],
          [
            -57.570879,
            -38.045324
          ],
          [
            -57.570032,
            -38.04596
          ],
          [
            -57.569186,
            -38.046604
          ],
          [
            -57.568306,
            -38.047257
          ],
          [
            -57.569188,
            -38.047992
          ],
          [
            -57.570014,
            -38.048651
          ],
          [
            -57.570838,
            -38.049325
          ],
          [
            -57.57165,
            -38.050003
          ],
          [
            -57.571787,
            -38.050114
          ],
          [
            -57.57212,
            -38.050384
          ],
          [
            -57.57226,
            -38.050499
          ],
          [
            -57.572469,
            -38.050676
          ],
          [
            -57.573259,
            -38.05135
          ],
          [
            -57.574085,
            -38.05205
          ],
          [
            -57.574901,
            -38.052723
          ],
          [
            -57.575739,
            -38.053413
          ],
          [
            -57.57652,
            -38.054057
          ],
          [
            -57.577351,
            -38.054742
          ],
          [
            -57.578179,
            -38.05539
          ],
          [
            -57.578025,
            -38.055505
          ],
          [
            -57.577318,
            -38.056033
          ],
          [
            -57.577303,
            -38.056044
          ],
          [
            -57.576612,
            -38.05656
          ],
          [
            -57.576443,
            -38.056687
          ],
          [
            -57.575852,
            -38.057128
          ],
          [
            -57.575617,
            -38.057303
          ],
          [
            -57.575226,
            -38.057595
          ],
          [
            -57.574768,
            -38.057938
          ],
          [
            -57.574646,
            -38.058028
          ],
          [
            -57.57442,
            -38.058196
          ],
          [
            -57.573888,
            -38.058595
          ],
          [
            -57.573049,
            -38.059221
          ],
          [
            -57.572733,
            -38.059457
          ],
          [
            -57.572513,
            -38.059622
          ],
          [
            -57.57217,
            -38.059878
          ],
          [
            -57.571246,
            -38.060566
          ],
          [
            -57.57123,
            -38.060588
          ],
          [
            -57.571176,
            -38.060661
          ],
          [
            -57.571152,
            -38.060679
          ],
          [
            -57.570844,
            -38.06091
          ],
          [
            -57.570328,
            -38.061297
          ],
          [
            -57.570268,
            -38.061246
          ],
          [
            -57.569537,
            -38.060653
          ],
          [
            -57.570485,
            -38.059939
          ],
          [
            -57.571246,
            -38.060566
          ],
          [
            -57.571636,
            -38.060887
          ],
          [
            -57.571802,
            -38.061025
          ],
          [
            -57.572287,
            -38.061424
          ],
          [
            -57.572716,
            -38.061834
          ],
          [
            -57.572877,
            -38.061998
          ],
          [
            -57.572976,
            -38.062118
          ],
          [
            -57.573046,
            -38.062216
          ],
          [
            -57.57311,
            -38.062321
          ],
          [
            -57.573158,
            -38.062412
          ],
          [
            -57.573188,
            -38.062478
          ],
          [
            -57.573251,
            -38.062615
          ],
          [
            -57.573323,
            -38.062771
          ],
          [
            -57.573417,
            -38.062974
          ],
          [
            -57.573491,
            -38.063171
          ],
          [
            -57.573544,
            -38.063379
          ],
          [
            -57.573562,
            -38.063564
          ],
          [
            -57.573575,
            -38.063752
          ],
          [
            -57.573581,
            -38.063953
          ],
          [
            -57.573564,
            -38.064788
          ],
          [
            -57.573517,
            -38.065852
          ],
          [
            -57.573424,
            -38.068855
          ],
          [
            -57.573424,
            -38.068871
          ],
          [
            -57.57433,
            -38.068866
          ],
          [
            -57.574329,
            -38.069412
          ],
          [
            -57.57435,
            -38.069685
          ],
          [
            -57.574408,
            -38.069958
          ],
          [
            -57.574538,
            -38.07023
          ],
          [
            -57.574678,
            -38.070484
          ],
          [
            -57.574903,
            -38.070785
          ],
          [
            -57.57532,
            -38.071179
          ],
          [
            -57.576521,
            -38.072213
          ],
          [
            -57.575863,
            -38.072714
          ],
          [
            -57.575833,
            -38.072737
          ],
          [
            -57.579419,
            -38.075669
          ],
          [
            -57.579585,
            -38.075802
          ],
          [
            -57.579594,
            -38.075809
          ],
          [
            -57.579793,
            -38.075974
          ],
          [
            -57.580034,
            -38.076172
          ],
          [
            -57.580828,
            -38.076825
          ],
          [
            -57.5814,
            -38.077292
          ],
          [
            -57.581889,
            -38.077694
          ],
          [
            -57.583023,
            -38.078644
          ],
          [
            -57.583419,
            -38.078974
          ],
          [
            -57.583493,
            -38.079034
          ],
          [
            -57.583774,
            -38.079262
          ],
          [
            -57.584038,
            -38.079476
          ],
          [
            -57.584301,
            -38.079693
          ],
          [
            -57.584658,
            -38.07998
          ],
          [
            -57.584987,
            -38.080256
          ],
          [
            -57.58522,
            -38.08045
          ],
          [
            -57.586789,
            -38.081762
          ],
          [
            -57.586955,
            -38.081901
          ],
          [
            -57.587038,
            -38.081969
          ],
          [
            -57.587237,
            -38.082131
          ],
          [
            -57.587605,
            -38.082431
          ],
          [
            -57.590235,
            -38.084589
          ],
          [
            -57.590414,
            -38.08474
          ],
          [
            -57.591234,
            -38.085441
          ],
          [
            -57.59184,
            -38.085957
          ],
          [
            -57.593042,
            -38.085016
          ],
          [
            -57.593085,
            -38.085
          ],
          [
            -57.593135,
            -38.085008
          ],
          [
            -57.593696,
            -38.085478
          ],
          [
            -57.592484,
            -38.086445
          ],
          [
            -57.592452,
            -38.08647
          ],
          [
            -57.591255,
            -38.087355
          ],
          [
            -57.590076,
            -38.088207
          ],
          [
            -57.588953,
            -38.089099
          ],
          [
            -57.587768,
            -38.089986
          ],
          [
            -57.586443,
            -38.091001
          ],
          [
            -57.585172,
            -38.091968
          ],
          [
            -57.583794,
            -38.093003
          ],
          [
            -57.582444,
            -38.094017
          ],
          [
            -57.583047,
            -38.094513
          ],
          [
            -57.583664,
            -38.095022
          ],
          [
            -57.583677,
            -38.095033
          ],
          [
            -57.582304,
            -38.096076
          ],
          [
            -57.581751,
            -38.096495
          ],
          [
            -57.58158,
            -38.096623
          ],
          [
            -57.581257,
            -38.09687
          ],
          [
            -57.580281,
            -38.097602
          ],
          [
            -57.578932,
            -38.098621
          ],
          [
            -57.577542,
            -38.09967
          ],
          [
            -57.576853,
            -38.100191
          ],
          [
            -57.576638,
            -38.100353
          ],
          [
            -57.57638,
            -38.100794
          ],
          [
            -57.575987,
            -38.101578
          ],
          [
            -57.575617,
            -38.102316
          ],
          [
            -57.575228,
            -38.103092
          ],
          [
            -57.575031,
            -38.103485
          ],
          [
            -57.574834,
            -38.103879
          ],
          [
            -57.574463,
            -38.104619
          ],
          [
            -57.574076,
            -38.105389
          ],
          [
            -57.573763,
            -38.106053
          ],
          [
            -57.573678,
            -38.106328
          ],
          [
            -57.573604,
            -38.106543
          ],
          [
            -57.573292,
            -38.106779
          ],
          [
            -57.574846,
            -38.107603
          ],
          [
            -57.575118,
            -38.107747
          ],
          [
            -57.576608,
            -38.108551
          ],
          [
            -57.576888,
            -38.1087
          ],
          [
            -57.577217,
            -38.108874
          ],
          [
            -57.57748,
            -38.109006
          ],
          [
            -57.577828,
            -38.109165
          ],
          [
            -57.578131,
            -38.1093
          ],
          [
            -57.578523,
            -38.109489
          ],
          [
            -57.578944,
            -38.109663
          ],
          [
            -57.579336,
            -38.109817
          ],
          [
            -57.579796,
            -38.10998
          ],
          [
            -57.580582,
            -38.110226
          ],
          [
            -57.580966,
            -38.110342
          ],
          [
            -57.581776,
            -38.110586
          ],
          [
            -57.582793,
            -38.110913
          ],
          [
            -57.583485,
            -38.111149
          ],
          [
            -57.583998,
            -38.111354
          ],
          [
            -57.584015,
            -38.111362
          ],
          [
            -57.584113,
            -38.111407
          ],
          [
            -57.584369,
            -38.111526
          ],
          [
            -57.584366,
            -38.111423
          ],
          [
            -57.584372,
            -38.111339
          ],
          [
            -57.584387,
            -38.111255
          ],
          [
            -57.584431,
            -38.111164
          ],
          [
            -57.584755,
            -38.110911
          ],
          [
            -57.586007,
            -38.109915
          ],
          [
            -57.587407,
            -38.108867
          ],
          [
            -57.588715,
            -38.107887
          ],
          [
            -57.590088,
            -38.106846
          ],
          [
            -57.591456,
            -38.105828
          ],
          [
            -57.592824,
            -38.104796
          ],
          [
            -57.594185,
            -38.103774
          ],
          [
            -57.594206,
            -38.103758
          ],
          [
            -57.595576,
            -38.102728
          ],
          [
            -57.596941,
            -38.101702
          ],
          [
            -57.597515,
            -38.10127
          ],
          [
            -57.598224,
            -38.100738
          ],
          [
            -57.598477,
            -38.100547
          ],
          [
            -57.601849,
            -38.098013
          ],
          [
            -57.604068,
            -38.096342
          ],
          [
            -57.604053,
            -38.096329
          ]
        ],
        "type": "LineString"
      },
      "properties": {
        "linea": "501",
        "ramal": "Santa Rosa A",
        "nombre": "Línea 501 - Santa Rosa A"
      }
    },
    {
      "type": "Feature",
      "geometry": {
        "type": "Point",
        "coordinates": [
          -57.6081559,
          -37.991077
        ]
      },
      "properties": {
        "linea": "501",
        "ramal": "Santa Rosa A",
        "numero_camara": "123",
        "direccion": "Avenida Juan B. Justo & Avenida Doctor Arturo Alió, Mar del Plata, Provincia de Buenos Aires, Argentina",
        "orden": 472
      }
    },
    {
      "type": "Feature",
      "geometry": {
        "type": "Point",
        "coordinates": [
          -57.6063614,
          -37.992435
        ]
      },
      "properties": {
        "linea": "501",
        "ramal": "Santa Rosa A",
        "numero_camara": "623",
        "direccion": "Avenida Juan B. Justo & Etchegaray, Mar del Plata, Provincia de Buenos Aires, Argentina",
        "orden": 473
      }
    },
    {
      "type": "Feature",
      "geometry": {
        "type": "Point",
        "coordinates": [
          -57.6028352,
          -37.995097
        ]
      },
      "properties": {
        "linea": "501",
        "ramal": "Santa Rosa A",
        "numero_camara": "47",
        "direccion": "Avenida Juan B. Justo & Fernández J. N. , Mar del Plata, Provincia de Buenos Aires, Argentina",
        "orden": 474
      }
    },
    {
      "type": "Feature",
      "geometry": {
        "type": "Point",
        "coordinates": [
          -57.6010993,
          -37.996401
        ]
      },
      "properties": {
        "linea": "501",
        "ramal": "Santa Rosa A",
        "numero_camara": "622",
        "direccion": "Avenida Juan B. Justo & Tres Arroyos, Mar del Plata, Provincia de Buenos Aires, Argentina",
        "orden": 475
      }
    },
    {
      "type": "Feature",
      "geometry": {
        "type": "Point",
        "coordinates": [
          -57.5979268,
          -37.999305
        ]
      },
      "properties": {
        "linea": "501",
        "ramal": "Santa Rosa A",
        "numero_camara": "122",
        "direccion": "Avenida Centenario, Mar del Plata, Provincia de Buenos Aires, Argentina",
        "orden": 476
      }
    },
    {
      "type": "Feature",
      "geometry": {
        "type": "Point",
        "coordinates": [
          -57.6004918,
          -38.002141
        ]
      },
      "properties": {
        "linea": "501",
        "ramal": "Santa Rosa A",
        "numero_camara": "116",
        "direccion": "Ruta Provincial 88 & 12 de Octubre, Mar del Plata, Provincia de Buenos Aires, Argentina",
        "orden": 477
      }
    },
    {
      "type": "Feature",
      "geometry": {
        "type": "Point",
        "coordinates": [
          -57.6040867,
          -38.007204
        ]
      },
      "properties": {
        "linea": "501",
        "ramal": "Santa Rosa A",
        "numero_camara": "471",
        "direccion": "Intendente Vignolo & Guanahani,, Mar del Plata, Provincia de Buenos Aires, Argentina",
        "orden": 478
      }
    },
    {
      "type": "Feature",
      "geometry": {
        "type": "Point",
        "coordinates": [
          -57.6048542,
          -38.009194
        ]
      },
      "properties": {
        "linea": "501",
        "ramal": "Santa Rosa A",
        "numero_camara": "633",
        "direccion": "Avenida Vertiz & Intendente Andrés Mac Gaul, Mar del Plata, Provincia de Buenos Aires, Argentina",
        "orden": 479
      }
    },
    {
      "type": "Feature",
      "geometry": {
        "type": "Point",
        "coordinates": [
          -57.602293,
          -38.011125
        ]
      },
      "properties": {
        "linea": "501",
        "ramal": "Santa Rosa A",
        "numero_camara": "74",
        "direccion": "Avenida Vertiz & Reforma Universitaria, Mar del Plata, Provincia de Buenos Aires, Argentina",
        "orden": 480
      }
    },
    {
      "type": "Feature",
      "geometry": {
        "type": "Point",
        "coordinates": [
          -57.596984,
          -38.015127
        ]
      },
      "properties": {
        "linea": "501",
        "ramal": "Santa Rosa A",
        "numero_camara": "405",
        "direccion": "Avenida Polonia & Avenida Vertiz, Mar del Plata, Provincia de Buenos Aires, Argentina",
        "orden": 481
      }
    },
    {
      "type": "Feature",
      "geometry": {
        "type": "Point",
        "coordinates": [
          -57.593152,
          -38.018043
        ]
      },
      "properties": {
        "linea": "501",
        "ramal": "Santa Rosa A",
        "numero_camara": "678",
        "direccion": "Avenida Vertiz & Intendente Camusso, Mar del Plata, Provincia de Buenos Aires, Argentina",
        "orden": 482
      }
    },
    {
      "type": "Feature",
      "geometry": {
        "type": "Point",
        "coordinates": [
          -57.5867897,
          -38.023378
        ]
      },
      "properties": {
        "linea": "501",
        "ramal": "Santa Rosa A",
        "numero_camara": "679",
        "direccion": "Vertiz & Calle Friuli, Mar del Plata, Provincia de Buenos Aires, Argentina",
        "orden": 483
      }
    },
    {
      "type": "Feature",
      "geometry": {
        "type": "Point",
        "coordinates": [
          -57.5810893,
          -38.02715
        ]
      },
      "properties": {
        "linea": "501",
        "ramal": "Santa Rosa A",
        "numero_camara": "390",
        "direccion": "Avenida Jacinto Peralta Ramos & Avenida Vertiz, Mar del Plata, Provincia de Buenos Aires, Argentina",
        "orden": 484
      }
    },
    {
      "type": "Feature",
      "geometry": {
        "type": "Point",
        "coordinates": [
          -57.5757751,
          -38.031178
        ]
      },
      "properties": {
        "linea": "501",
        "ramal": "Santa Rosa A",
        "numero_camara": "78",
        "direccion": "Avenida Vertiz & Talcahuano, Mar del Plata, Provincia de Buenos Aires, Argentina",
        "orden": 485
      }
    },
    {
      "type": "Feature",
      "geometry": {
        "type": "Point",
        "coordinates": [
          -57.5708407,
          -38.035369
        ]
      },
      "properties": {
        "linea": "501",
        "ramal": "Santa Rosa A",
        "numero_camara": "350",
        "direccion": "Avenida Vertiz & Galicia Mar del Plata, Provincia de Buenos Aires, Argentina",
        "orden": 486
      }
    },
    {
      "type": "Feature",
      "geometry": {
        "type": "Point",
        "coordinates": [
          -57.5651377,
          -38.039175
        ]
      },
      "properties": {
        "linea": "501",
        "ramal": "Santa Rosa A",
        "numero_camara": "76",
        "direccion": "Avenida Vertiz & Cerrito, Mar del Plata, Provincia de Buenos Aires, Argentina",
        "orden": 487
      }
    },
    {
      "type": "Feature",
      "geometry": {
        "type": "Point",
        "coordinates": [
          -57.5683519,
          -38.04321
        ]
      },
      "properties": {
        "linea": "501",
        "ramal": "Santa Rosa A",
        "numero_camara": "232",
        "direccion": "Marcelo T. de Alvear & Soler, Mar del Plata, Provincia de Buenos Aires, Argentina",
        "orden": 488
      }
    },
    {
      "type": "Feature",
      "geometry": {
        "type": "Point",
        "coordinates": [
          -57.5717256,
          -38.044652
        ]
      },
      "properties": {
        "linea": "501",
        "ramal": "Santa Rosa A",
        "numero_camara": "291",
        "direccion": "Avenida Fortunato de la Plaza & Cerrito, Mar del Plata, Provincia de Buenos Aires, Argentina",
        "orden": 489
      }
    },
    {
      "type": "Feature",
      "geometry": {
        "type": "Point",
        "coordinates": [
          -57.5766912,
          -38.048789
        ]
      },
      "properties": {
        "linea": "501",
        "ramal": "Santa Rosa A",
        "numero_camara": "292",
        "direccion": "Calabria & Cerrito, Mar del Plata, Provincia de Buenos Aires, Argentina",
        "orden": 490
      }
    },
    {
      "type": "Feature",
      "geometry": {
        "type": "Point",
        "coordinates": [
          -57.5771098,
          -38.040599
        ]
      },
      "properties": {
        "linea": "501",
        "ramal": "Santa Rosa A",
        "numero_camara": "63",
        "direccion": "Avenida Fortunato de la Plaza & Galicia, Mar del Plata, Provincia de Buenos Aires, Argentina",
        "orden": 491
      }
    },
    {
      "type": "Feature",
      "geometry": {
        "type": "Point",
        "coordinates": [
          -57.5773125,
          -38.056053
        ]
      },
      "properties": {
        "linea": "501",
        "ramal": "Santa Rosa A",
        "numero_camara": "208",
        "direccion": "Avenida Mario Bravo & Lanzilota, Mar del Plata, Provincia de Buenos Aires, Argentina",
        "orden": 492
      }
    },
    {
      "type": "Feature",
      "geometry": {
        "type": "Point",
        "coordinates": [
          -57.5712209,
          -38.060584
        ]
      },
      "properties": {
        "linea": "501",
        "ramal": "Santa Rosa A",
        "numero_camara": "244",
        "direccion": "Avenida Mario Bravo & Avenida Edison, Mar del Plata, Provincia de Buenos Aires, Argentina",
        "orden": 493
      }
    },
    {
      "type": "Feature",
      "geometry": {
        "type": "Point",
        "coordinates": [
          -57.5734051,
          -38.068855
        ]
      },
      "properties": {
        "linea": "501",
        "ramal": "Santa Rosa A",
        "numero_camara": "243",
        "direccion": "Avenida Jorge Newbery & Fragata Sarmiento, Mar del Plata, Provincia de Buenos Aires, Argentina",
        "orden": 494
      }
    },
    {
      "type": "Feature",
      "geometry": {
        "type": "Point",
        "coordinates": [
          -57.5758628,
          -38.072714
        ]
      },
      "properties": {
        "linea": "501",
        "ramal": "Santa Rosa A",
        "numero_camara": "209",
        "direccion": "Avenida Jorge Newbery & Bahía Thetis, Mar del Plata, Provincia de Buenos Aires, Argentina",
        "orden": 495
      }
    },
    {
      "type": "Feature",
      "geometry": {
        "type": "Point",
        "coordinates": [
          -57.5924649,
          -38.08643
        ]
      },
      "properties": {
        "linea": "501",
        "ramal": "Santa Rosa A",
        "numero_camara": "645",
        "direccion": "Avenida Jorge Newbery & Calle 429, Mar del Plata, Provincia de Buenos Aires, Argentina",
        "orden": 496
      }
    },
    {
      "type": "Feature",
      "geometry": {
        "type": "Point",
        "coordinates": [
          -57.5836678,
          -38.095019
        ]
      },
      "properties": {
        "linea": "501",
        "ramal": "Santa Rosa A",
        "numero_camara": "636",
        "direccion": "Calle 431 & Calle 18, Mar del Plata, Provincia de Buenos Aires, Argentina",
        "orden": 497
      }
    },
    {
      "type": "Feature",
      "geometry": {
        "type": "Point",
        "coordinates": [
          -57.5839977,
          -38.111384
        ]
      },
      "properties": {
        "linea": "501",
        "ramal": "Santa Rosa A",
        "numero_camara": "492",
        "direccion": "Ruta Provincial 11 & Calle 461, Mar del Plata, Provincia de Buenos Aires, Argentina",
        "orden": 498
      }
    },
    {
      "type": "Feature",
      "geometry": {
        "type": "Point",
        "coordinates": [
          -57.5942134,
          -38.103764
        ]
      },
      "properties": {
        "linea": "501",
        "ramal": "Santa Rosa A",
        "numero_camara": "637",
        "direccion": "Calle 461 & Calle 18, Mar del Plata, Provincia de Buenos Aires, Argentina",
        "orden": 499
      }
    },
    {
      "type": "Feature",
      "geometry": {
        "type": "Point",
        "coordinates": [
          -57.6040382,
          -38.09634
        ]
      },
      "properties": {
        "linea": "501",
        "ramal": "Santa Rosa A",
        "numero_camara": "638",
        "direccion": "Avenida Jorge Newbery & Calle 461, Mar del Plata, Provincia de Buenos Aires, Argentina",
        "orden": 500
      }
    },
    {
      "type": "Feature",
      "geometry": {
        "coordinates": [
          [
            -57.592484,
            -38.086445
          ],
          [
            -57.592452,
            -38.08647
          ],
          [
            -57.59184,
            -38.085957
          ],
          [
            -57.591234,
            -38.085441
          ],
          [
            -57.590414,
            -38.08474
          ],
          [
            -57.590235,
            -38.084589
          ],
          [
            -57.587605,
            -38.082431
          ],
          [
            -57.587237,
            -38.082131
          ],
          [
            -57.587038,
            -38.081969
          ],
          [
            -57.586955,
            -38.081901
          ],
          [
            -57.586789,
            -38.081762
          ],
          [
            -57.58522,
            -38.08045
          ],
          [
            -57.584987,
            -38.080256
          ],
          [
            -57.584658,
            -38.07998
          ],
          [
            -57.584301,
            -38.079693
          ],
          [
            -57.584038,
            -38.079476
          ],
          [
            -57.583774,
            -38.079262
          ],
          [
            -57.583493,
            -38.079034
          ],
          [
            -57.583419,
            -38.078974
          ],
          [
            -57.583023,
            -38.078644
          ],
          [
            -57.581889,
            -38.077694
          ],
          [
            -57.5814,
            -38.077292
          ],
          [
            -57.580828,
            -38.076825
          ],
          [
            -57.580034,
            -38.076172
          ],
          [
            -57.579793,
            -38.075974
          ],
          [
            -57.579594,
            -38.075809
          ],
          [
            -57.579585,
            -38.075802
          ],
          [
            -57.579419,
            -38.075669
          ],
          [
            -57.575833,
            -38.072737
          ],
          [
            -57.575863,
            -38.072714
          ],
          [
            -57.576521,
            -38.072213
          ],
          [
            -57.57532,
            -38.071179
          ],
          [
            -57.574903,
            -38.070785
          ],
          [
            -57.574678,
            -38.070484
          ],
          [
            -57.574538,
            -38.07023
          ],
          [
            -57.574408,
            -38.069958
          ],
          [
            -57.57435,
            -38.069685
          ],
          [
            -57.574329,
            -38.069412
          ],
          [
            -57.57433,
            -38.068866
          ],
          [
            -57.573424,
            -38.068871
          ],
          [
            -57.573424,
            -38.068855
          ],
          [
            -57.573517,
            -38.065852
          ],
          [
            -57.573564,
            -38.064788
          ],
          [
            -57.573581,
            -38.063953
          ],
          [
            -57.573575,
            -38.063752
          ],
          [
            -57.573562,
            -38.063564
          ],
          [
            -57.573544,
            -38.063379
          ],
          [
            -57.573491,
            -38.063171
          ],
          [
            -57.573417,
            -38.062974
          ],
          [
            -57.573323,
            -38.062771
          ],
          [
            -57.573251,
            -38.062615
          ],
          [
            -57.573188,
            -38.062478
          ],
          [
            -57.573158,
            -38.062412
          ],
          [
            -57.57311,
            -38.062321
          ],
          [
            -57.573046,
            -38.062216
          ],
          [
            -57.572976,
            -38.062118
          ],
          [
            -57.572877,
            -38.061998
          ],
          [
            -57.572716,
            -38.061834
          ],
          [
            -57.572287,
            -38.061424
          ],
          [
            -57.571802,
            -38.061025
          ],
          [
            -57.571636,
            -38.060887
          ],
          [
            -57.571246,
            -38.060566
          ],
          [
            -57.57123,
            -38.060588
          ],
          [
            -57.571176,
            -38.060661
          ],
          [
            -57.571152,
            -38.060679
          ],
          [
            -57.570844,
            -38.06091
          ],
          [
            -57.570328,
            -38.061297
          ],
          [
            -57.570268,
            -38.061246
          ],
          [
            -57.571093,
            -38.060628
          ],
          [
            -57.571117,
            -38.06061
          ],
          [
            -57.571246,
            -38.060566
          ],
          [
            -57.57217,
            -38.059878
          ],
          [
            -57.572513,
            -38.059622
          ],
          [
            -57.572733,
            -38.059457
          ],
          [
            -57.573049,
            -38.059221
          ],
          [
            -57.573888,
            -38.058595
          ],
          [
            -57.57442,
            -38.058196
          ],
          [
            -57.574646,
            -38.058028
          ],
          [
            -57.574768,
            -38.057938
          ],
          [
            -57.575226,
            -38.057595
          ],
          [
            -57.575416,
            -38.057745
          ],
          [
            -57.575488,
            -38.057801
          ],
          [
            -57.575534,
            -38.057837
          ],
          [
            -57.575648,
            -38.057936
          ],
          [
            -57.575918,
            -38.058171
          ],
          [
            -57.57635,
            -38.058563
          ],
          [
            -57.576901,
            -38.058116
          ],
          [
            -57.576982,
            -38.05807
          ],
          [
            -57.575852,
            -38.057128
          ],
          [
            -57.576443,
            -38.056687
          ],
          [
            -57.576612,
            -38.05656
          ],
          [
            -57.577303,
            -38.056044
          ],
          [
            -57.577318,
            -38.056033
          ],
          [
            -57.578025,
            -38.055505
          ],
          [
            -57.578179,
            -38.05539
          ],
          [
            -57.578746,
            -38.054967
          ],
          [
            -57.579009,
            -38.054771
          ],
          [
            -57.579482,
            -38.054417
          ],
          [
            -57.579906,
            -38.0541
          ],
          [
            -57.580678,
            -38.053523
          ],
          [
            -57.581267,
            -38.053083
          ],
          [
            -57.581375,
            -38.053003
          ],
          [
            -57.581609,
            -38.052828
          ],
          [
            -57.581595,
            -38.052816
          ],
          [
            -57.580823,
            -38.052177
          ],
          [
            -57.579985,
            -38.051483
          ],
          [
            -57.579185,
            -38.05082
          ],
          [
            -57.578358,
            -38.050135
          ],
          [
            -57.577523,
            -38.049444
          ],
          [
            -57.576703,
            -38.048765
          ],
          [
            -57.576681,
            -38.048781
          ],
          [
            -57.575838,
            -38.049415
          ],
          [
            -57.575033,
            -38.048751
          ],
          [
            -57.574206,
            -38.048069
          ],
          [
            -57.573373,
            -38.047381
          ],
          [
            -57.572565,
            -38.046715
          ],
          [
            -57.57176,
            -38.046051
          ],
          [
            -57.570879,
            -38.045324
          ],
          [
            -57.571754,
            -38.044666
          ],
          [
            -57.571732,
            -38.044648
          ],
          [
            -57.570856,
            -38.043924
          ],
          [
            -57.570043,
            -38.043252
          ],
          [
            -57.5692,
            -38.042554
          ],
          [
            -57.568379,
            -38.041875
          ],
          [
            -57.567575,
            -38.041209
          ],
          [
            -57.567571,
            -38.041206
          ],
          [
            -57.566766,
            -38.04054
          ],
          [
            -57.565932,
            -38.039851
          ],
          [
            -57.565305,
            -38.039297
          ],
          [
            -57.56514,
            -38.039157
          ],
          [
            -57.565128,
            -38.039166
          ],
          [
            -57.564549,
            -38.039592
          ],
          [
            -57.564244,
            -38.039787
          ],
          [
            -57.564392,
            -38.039913
          ],
          [
            -57.565087,
            -38.040506
          ],
          [
            -57.565932,
            -38.039851
          ],
          [
            -57.566785,
            -38.039179
          ],
          [
            -57.567649,
            -38.038541
          ],
          [
            -57.568532,
            -38.037885
          ],
          [
            -57.569373,
            -38.037254
          ],
          [
            -57.570228,
            -38.036604
          ],
          [
            -57.571364,
            -38.035793
          ],
          [
            -57.570865,
            -38.03538
          ],
          [
            -57.570847,
            -38.035365
          ],
          [
            -57.570693,
            -38.035237
          ],
          [
            -57.570521,
            -38.035095
          ],
          [
            -57.570949,
            -38.034781
          ],
          [
            -57.571528,
            -38.034367
          ],
          [
            -57.571996,
            -38.034006
          ],
          [
            -57.572941,
            -38.03332
          ],
          [
            -57.573042,
            -38.033248
          ],
          [
            -57.574928,
            -38.031771
          ],
          [
            -57.575758,
            -38.031163
          ],
          [
            -57.575794,
            -38.031137
          ],
          [
            -57.576666,
            -38.030493
          ],
          [
            -57.57752,
            -38.029843
          ],
          [
            -57.578388,
            -38.029191
          ],
          [
            -57.579218,
            -38.028575
          ],
          [
            -57.580122,
            -38.027902
          ],
          [
            -57.581095,
            -38.027161
          ],
          [
            -57.581085,
            -38.027153
          ],
          [
            -57.580266,
            -38.026475
          ],
          [
            -57.581238,
            -38.025766
          ],
          [
            -57.582044,
            -38.026446
          ],
          [
            -57.582902,
            -38.025798
          ],
          [
            -57.583756,
            -38.025154
          ],
          [
            -57.584605,
            -38.024505
          ],
          [
            -57.585476,
            -38.023849
          ],
          [
            -57.585647,
            -38.023986
          ],
          [
            -57.585802,
            -38.02411
          ],
          [
            -57.586277,
            -38.024512
          ],
          [
            -57.587248,
            -38.023769
          ],
          [
            -57.586789,
            -38.023379
          ],
          [
            -57.586773,
            -38.023365
          ],
          [
            -57.586727,
            -38.0234
          ],
          [
            -57.586624,
            -38.023365
          ],
          [
            -57.586516,
            -38.023314
          ],
          [
            -57.586337,
            -38.0232
          ],
          [
            -57.587152,
            -38.022554
          ],
          [
            -57.588025,
            -38.021928
          ],
          [
            -57.588691,
            -38.021426
          ],
          [
            -57.588876,
            -38.021287
          ],
          [
            -57.589107,
            -38.021113
          ],
          [
            -57.589949,
            -38.020473
          ],
          [
            -57.590202,
            -38.020288
          ],
          [
            -57.590503,
            -38.020048
          ],
          [
            -57.590807,
            -38.019838
          ],
          [
            -57.590816,
            -38.019831
          ],
          [
            -57.591477,
            -38.019331
          ],
          [
            -57.592338,
            -38.01868
          ],
          [
            -57.593169,
            -38.01805
          ],
          [
            -57.593157,
            -38.01804
          ],
          [
            -57.59234,
            -38.017358
          ],
          [
            -57.593171,
            -38.01673
          ],
          [
            -57.594067,
            -38.016051
          ],
          [
            -57.594929,
            -38.015403
          ],
          [
            -57.596208,
            -38.014469
          ],
          [
            -57.597012,
            -38.015105
          ],
          [
            -57.597042,
            -38.015129
          ],
          [
            -57.597948,
            -38.014444
          ],
          [
            -57.598919,
            -38.01371
          ],
          [
            -57.599753,
            -38.013079
          ],
          [
            -57.600643,
            -38.012407
          ],
          [
            -57.601434,
            -38.011809
          ],
          [
            -57.602315,
            -38.011143
          ],
          [
            -57.602293,
            -38.011125
          ],
          [
            -57.6019,
            -38.0108
          ],
          [
            -57.601484,
            -38.010457
          ],
          [
            -57.60233,
            -38.009835
          ],
          [
            -57.603208,
            -38.009184
          ],
          [
            -57.604082,
            -38.008537
          ],
          [
            -57.604866,
            -38.009185
          ],
          [
            -57.604887,
            -38.009203
          ],
          [
            -57.605749,
            -38.008557
          ],
          [
            -57.606587,
            -38.007929
          ],
          [
            -57.607526,
            -38.007216
          ],
          [
            -57.607856,
            -38.006955
          ],
          [
            -57.608112,
            -38.006753
          ],
          [
            -57.608309,
            -38.006597
          ],
          [
            -57.608434,
            -38.006505
          ],
          [
            -57.608437,
            -38.006503
          ],
          [
            -57.608221,
            -38.006388
          ],
          [
            -57.607807,
            -38.006166
          ],
          [
            -57.607412,
            -38.005954
          ],
          [
            -57.606389,
            -38.005405
          ],
          [
            -57.605432,
            -38.004881
          ],
          [
            -57.604465,
            -38.004361
          ],
          [
            -57.603437,
            -38.00379
          ],
          [
            -57.602442,
            -38.003241
          ],
          [
            -57.601481,
            -38.002717
          ],
          [
            -57.600908,
            -38.002393
          ],
          [
            -57.600486,
            -38.002144
          ],
          [
            -57.600491,
            -38.00214
          ],
          [
            -57.600555,
            -38.002091
          ],
          [
            -57.600613,
            -38.002045
          ],
          [
            -57.600901,
            -38.001816
          ],
          [
            -57.601832,
            -38.001111
          ],
          [
            -57.601034,
            -38.000449
          ],
          [
            -57.600208,
            -37.999735
          ],
          [
            -57.599368,
            -37.999067
          ],
          [
            -57.598539,
            -37.998379
          ],
          [
            -57.598521,
            -37.998358
          ],
          [
            -57.598046,
            -37.998717
          ],
          [
            -57.597966,
            -37.998829
          ],
          [
            -57.597942,
            -37.998886
          ],
          [
            -57.597924,
            -37.998936
          ],
          [
            -57.597908,
            -37.999
          ],
          [
            -57.597901,
            -37.999055
          ],
          [
            -57.597901,
            -37.999118
          ],
          [
            -57.597912,
            -37.999191
          ],
          [
            -57.597928,
            -37.999268
          ],
          [
            -57.597938,
            -37.999303
          ],
          [
            -57.597943,
            -37.999323
          ],
          [
            -57.597965,
            -37.999402
          ],
          [
            -57.598005,
            -37.999454
          ],
          [
            -57.598035,
            -37.999531
          ],
          [
            -57.598044,
            -37.999592
          ],
          [
            -57.59804,
            -37.999655
          ],
          [
            -57.598022,
            -37.999718
          ],
          [
            -57.597995,
            -37.999768
          ],
          [
            -57.597964,
            -37.999805
          ],
          [
            -57.597921,
            -37.999839
          ],
          [
            -57.597879,
            -37.99986
          ],
          [
            -57.597825,
            -37.999883
          ],
          [
            -57.597758,
            -37.999901
          ],
          [
            -57.597709,
            -37.999907
          ],
          [
            -57.597651,
            -37.99991
          ],
          [
            -57.597603,
            -37.999909
          ],
          [
            -57.59754,
            -37.999899
          ],
          [
            -57.597463,
            -37.999869
          ],
          [
            -57.597318,
            -37.999793
          ],
          [
            -57.597219,
            -37.999734
          ],
          [
            -57.597148,
            -37.999688
          ],
          [
            -57.597104,
            -37.999653
          ],
          [
            -57.597069,
            -37.999622
          ],
          [
            -57.597033,
            -37.99959
          ],
          [
            -57.597,
            -37.999557
          ],
          [
            -57.596972,
            -37.999521
          ],
          [
            -57.596947,
            -37.99949
          ],
          [
            -57.59693,
            -37.999453
          ],
          [
            -57.59692,
            -37.999417
          ],
          [
            -57.596909,
            -37.999359
          ],
          [
            -57.596905,
            -37.999281
          ],
          [
            -57.596934,
            -37.999199
          ],
          [
            -57.596977,
            -37.999145
          ],
          [
            -57.597023,
            -37.999105
          ],
          [
            -57.597076,
            -37.999073
          ],
          [
            -57.597144,
            -37.999045
          ],
          [
            -57.597217,
            -37.999022
          ],
          [
            -57.597285,
            -37.999007
          ],
          [
            -57.597342,
            -37.999003
          ],
          [
            -57.597385,
            -37.999001
          ],
          [
            -57.59745,
            -37.999009
          ],
          [
            -57.597475,
            -37.999016
          ],
          [
            -57.597561,
            -37.999008
          ],
          [
            -57.597621,
            -37.998998
          ],
          [
            -57.597696,
            -37.998976
          ],
          [
            -57.597766,
            -37.998946
          ],
          [
            -57.597829,
            -37.998907
          ],
          [
            -57.597883,
            -37.998864
          ],
          [
            -57.598046,
            -37.998717
          ],
          [
            -57.598521,
            -37.998358
          ],
          [
            -57.599367,
            -37.997717
          ],
          [
            -57.60026,
            -37.997041
          ],
          [
            -57.600326,
            -37.996991
          ],
          [
            -57.60102,
            -37.996466
          ],
          [
            -57.601102,
            -37.996404
          ],
          [
            -57.601123,
            -37.996388
          ],
          [
            -57.601967,
            -37.995749
          ],
          [
            -57.602848,
            -37.995082
          ],
          [
            -57.603697,
            -37.994445
          ],
          [
            -57.604488,
            -37.99385
          ],
          [
            -57.60462,
            -37.993751
          ],
          [
            -57.605515,
            -37.993073
          ],
          [
            -57.606359,
            -37.992433
          ],
          [
            -57.606379,
            -37.992418
          ],
          [
            -57.606692,
            -37.99218
          ],
          [
            -57.606823,
            -37.992082
          ],
          [
            -57.60724,
            -37.991765
          ],
          [
            -57.608149,
            -37.991071
          ]
        ],
        "type": "LineString"
      },
      "properties": {
        "linea": "501",
        "ramal": "REGIONAL",
        "nombre": "Línea 501 - REGIONAL"
      }
    },
    {
      "type": "Feature",
      "geometry": {
        "type": "Point",
        "coordinates": [
          -57.5924649,
          -38.08643
        ]
      },
      "properties": {
        "linea": "501",
        "ramal": "REGIONAL",
        "numero_camara": "645",
        "direccion": "Avenida Jorge Newbery & Calle 429, Mar del Plata, Provincia de Buenos Aires, Argentina",
        "orden": 501
      }
    },
    {
      "type": "Feature",
      "geometry": {
        "type": "Point",
        "coordinates": [
          -57.5758628,
          -38.072714
        ]
      },
      "properties": {
        "linea": "501",
        "ramal": "REGIONAL",
        "numero_camara": "209",
        "direccion": "Avenida Jorge Newbery & Bahía Thetis, Mar del Plata, Provincia de Buenos Aires, Argentina",
        "orden": 502
      }
    },
    {
      "type": "Feature",
      "geometry": {
        "type": "Point",
        "coordinates": [
          -57.5734051,
          -38.068855
        ]
      },
      "properties": {
        "linea": "501",
        "ramal": "REGIONAL",
        "numero_camara": "243",
        "direccion": "Avenida Jorge Newbery & Fragata Sarmiento, Mar del Plata, Provincia de Buenos Aires, Argentina",
        "orden": 503
      }
    },
    {
      "type": "Feature",
      "geometry": {
        "type": "Point",
        "coordinates": [
          -57.5712209,
          -38.060584
        ]
      },
      "properties": {
        "linea": "501",
        "ramal": "REGIONAL",
        "numero_camara": "244",
        "direccion": "Avenida Mario Bravo & Avenida Edison, Mar del Plata, Provincia de Buenos Aires, Argentina",
        "orden": 504
      }
    },
    {
      "type": "Feature",
      "geometry": {
        "type": "Point",
        "coordinates": [
          -57.57544,
          -38.05784
        ]
      },
      "properties": {
        "linea": "501",
        "ramal": "REGIONAL",
        "numero_camara": "625",
        "direccion": "Avenida Mario Bravo & Jorge Hernández, Mar del Plata, Provincia de Buenos Aires, Argentina",
        "orden": 505
      }
    },
    {
      "type": "Feature",
      "geometry": {
        "type": "Point",
        "coordinates": [
          -57.5773125,
          -38.056053
        ]
      },
      "properties": {
        "linea": "501",
        "ramal": "REGIONAL",
        "numero_camara": "208",
        "direccion": "Avenida Mario Bravo & Lanzilota, Mar del Plata, Provincia de Buenos Aires, Argentina",
        "orden": 506
      }
    },
    {
      "type": "Feature",
      "geometry": {
        "type": "Point",
        "coordinates": [
          -57.5815795,
          -38.052827
        ]
      },
      "properties": {
        "linea": "501",
        "ramal": "REGIONAL",
        "numero_camara": "63",
        "direccion": "Avenida Mario Bravo & Cerrito, Mar del Plata, Provincia de Buenos Aires, Argentina",
        "orden": 507
      }
    },
    {
      "type": "Feature",
      "geometry": {
        "type": "Point",
        "coordinates": [
          -57.5766912,
          -38.048789
        ]
      },
      "properties": {
        "linea": "501",
        "ramal": "REGIONAL",
        "numero_camara": "292",
        "direccion": "Calabria & Cerrito, Mar del Plata, Provincia de Buenos Aires, Argentina",
        "orden": 508
      }
    },
    {
      "type": "Feature",
      "geometry": {
        "type": "Point",
        "coordinates": [
          -57.5717256,
          -38.044652
        ]
      },
      "properties": {
        "linea": "501",
        "ramal": "REGIONAL",
        "numero_camara": "291",
        "direccion": "Avenida Fortunato de la Plaza & Cerrito, Mar del Plata, Provincia de Buenos Aires, Argentina",
        "orden": 509
      }
    },
    {
      "type": "Feature",
      "geometry": {
        "type": "Point",
        "coordinates": [
          -57.5675736,
          -38.04121
        ]
      },
      "properties": {
        "linea": "501",
        "ramal": "REGIONAL",
        "numero_camara": "301",
        "direccion": "Cerrito & Rosales, Mar del Plata, Provincia de Buenos Aires, Argentina",
        "orden": 510
      }
    },
    {
      "type": "Feature",
      "geometry": {
        "type": "Point",
        "coordinates": [
          -57.5651377,
          -38.039175
        ]
      },
      "properties": {
        "linea": "501",
        "ramal": "REGIONAL",
        "numero_camara": "76",
        "direccion": "Avenida Vertiz & Cerrito, Mar del Plata, Provincia de Buenos Aires, Argentina",
        "orden": 511
      }
    },
    {
      "type": "Feature",
      "geometry": {
        "type": "Point",
        "coordinates": [
          -57.5708407,
          -38.035369
        ]
      },
      "properties": {
        "linea": "501",
        "ramal": "REGIONAL",
        "numero_camara": "350",
        "direccion": "Avenida Vertiz & Galicia Mar del Plata, Provincia de Buenos Aires, Argentina",
        "orden": 512
      }
    },
    {
      "type": "Feature",
      "geometry": {
        "type": "Point",
        "coordinates": [
          -57.5757751,
          -38.031178
        ]
      },
      "properties": {
        "linea": "501",
        "ramal": "REGIONAL",
        "numero_camara": "78",
        "direccion": "Avenida Vertiz & Talcahuano, Mar del Plata, Provincia de Buenos Aires, Argentina",
        "orden": 513
      }
    },
    {
      "type": "Feature",
      "geometry": {
        "type": "Point",
        "coordinates": [
          -57.5810893,
          -38.02715
        ]
      },
      "properties": {
        "linea": "501",
        "ramal": "REGIONAL",
        "numero_camara": "390",
        "direccion": "Avenida Jacinto Peralta Ramos & Avenida Vertiz, Mar del Plata, Provincia de Buenos Aires, Argentina",
        "orden": 514
      }
    },
    {
      "type": "Feature",
      "geometry": {
        "type": "Point",
        "coordinates": [
          -57.5867897,
          -38.023378
        ]
      },
      "properties": {
        "linea": "501",
        "ramal": "REGIONAL",
        "numero_camara": "679",
        "direccion": "Vertiz & Calle Friuli, Mar del Plata, Provincia de Buenos Aires, Argentina",
        "orden": 515
      }
    },
    {
      "type": "Feature",
      "geometry": {
        "type": "Point",
        "coordinates": [
          -57.593152,
          -38.018043
        ]
      },
      "properties": {
        "linea": "501",
        "ramal": "REGIONAL",
        "numero_camara": "678",
        "direccion": "Avenida Vertiz & Intendente Camusso, Mar del Plata, Provincia de Buenos Aires, Argentina",
        "orden": 516
      }
    },
    {
      "type": "Feature",
      "geometry": {
        "type": "Point",
        "coordinates": [
          -57.596984,
          -38.015127
        ]
      },
      "properties": {
        "linea": "501",
        "ramal": "REGIONAL",
        "numero_camara": "405",
        "direccion": "Avenida Polonia & Avenida Vertiz, Mar del Plata, Provincia de Buenos Aires, Argentina",
        "orden": 517
      }
    },
    {
      "type": "Feature",
      "geometry": {
        "type": "Point",
        "coordinates": [
          -57.602293,
          -38.011125
        ]
      },
      "properties": {
        "linea": "501",
        "ramal": "REGIONAL",
        "numero_camara": "74",
        "direccion": "Avenida Vertiz & Reforma Universitaria, Mar del Plata, Provincia de Buenos Aires, Argentina",
        "orden": 518
      }
    },
    {
      "type": "Feature",
      "geometry": {
        "type": "Point",
        "coordinates": [
          -57.6048542,
          -38.009194
        ]
      },
      "properties": {
        "linea": "501",
        "ramal": "REGIONAL",
        "numero_camara": "633",
        "direccion": "Avenida Vertiz & Intendente Andrés Mac Gaul, Mar del Plata, Provincia de Buenos Aires, Argentina",
        "orden": 519
      }
    },
    {
      "type": "Feature",
      "geometry": {
        "type": "Point",
        "coordinates": [
          -57.6084355,
          -38.006507
        ]
      },
      "properties": {
        "linea": "501",
        "ramal": "REGIONAL",
        "numero_camara": "77",
        "direccion": "Avenida Vertiz & Ruta Provincial 88, Mar del Plata, Provincia de Buenos Aires, Argentina",
        "orden": 520
      }
    },
    {
      "type": "Feature",
      "geometry": {
        "type": "Point",
        "coordinates": [
          -57.6004918,
          -38.002141
        ]
      },
      "properties": {
        "linea": "501",
        "ramal": "REGIONAL",
        "numero_camara": "116",
        "direccion": "Ruta Provincial 88 & 12 de Octubre, Mar del Plata, Provincia de Buenos Aires, Argentina",
        "orden": 521
      }
    },
    {
      "type": "Feature",
      "geometry": {
        "type": "Point",
        "coordinates": [
          -57.5979268,
          -37.999305
        ]
      },
      "properties": {
        "linea": "501",
        "ramal": "REGIONAL",
        "numero_camara": "122",
        "direccion": "Avenida Centenario, Mar del Plata, Provincia de Buenos Aires, Argentina",
        "orden": 522
      }
    },
    {
      "type": "Feature",
      "geometry": {
        "type": "Point",
        "coordinates": [
          -57.6010993,
          -37.996401
        ]
      },
      "properties": {
        "linea": "501",
        "ramal": "REGIONAL",
        "numero_camara": "622",
        "direccion": "Avenida Juan B. Justo & Tres Arroyos, Mar del Plata, Provincia de Buenos Aires, Argentina",
        "orden": 523
      }
    },
    {
      "type": "Feature",
      "geometry": {
        "type": "Point",
        "coordinates": [
          -57.6063614,
          -37.992435
        ]
      },
      "properties": {
        "linea": "501",
        "ramal": "REGIONAL",
        "numero_camara": "623",
        "direccion": "Avenida Juan B. Justo & Etchegaray, Mar del Plata, Provincia de Buenos Aires, Argentina",
        "orden": 524
      }
    },
    {
      "type": "Feature",
      "geometry": {
        "type": "Point",
        "coordinates": [
          -57.6081559,
          -37.991077
        ]
      },
      "properties": {
        "linea": "501",
        "ramal": "REGIONAL",
        "numero_camara": "123",
        "direccion": "Avenida Juan B. Justo & Avenida Doctor Arturo Alió, Mar del Plata, Provincia de Buenos Aires, Argentina",
        "orden": 525
      }
    }
  ]
}