{
  "type": "FeatureCollection",
  "features": [
    {
      "type": "Feature",
      "geometry": {
        "coordinates": [
          [
            -57.546387,
            -38.044225
          ],
          [
            -57.545559,
            -38.04485
          ],
          [
            -57.544753,
            -38.044174
          ],
          [
            -57.545605,
            -38.043536
          ],
          [
            -57.54646,
            -38.042896
          ],
          [
            -57.547324,
            -38.042249
          ],
          [
            -57.548202,
            -38.041592
          ],
          [
            -57.548283,
            -38.041531
          ],
          [
            -57.549162,
            -38.040872
          ],
          [
            -57.55003,
            -38.040221
          ],
          [
            -57.550885,
            -38.039581
          ],
          [
            -57.551731,
            -38.038935
          ],
          [
            -57.552619,
            -38.038266
          ],
          [
            -57.553416,
            -38.038956
          ],
          [
            -57.553405,
            -38.038964
          ],
          [
            -57.552547,
            -38.039611
          ],
          [
            -57.551731,
            -38.038935
          ],
          [
            -57.550903,
            -38.038246
          ],
          [
            -57.550076,
            -38.037575
          ],
          [
            -57.549293,
            -38.036899
          ],
          [
            -57.548456,
            -38.0362
          ],
          [
            -57.548369,
            -38.036119
          ],
          [
            -57.549251,
            -38.035454
          ],
          [
            -57.550025,
            -38.034872
          ],
          [
            -57.550157,
            -38.034772
          ],
          [
            -57.550235,
            -38.034714
          ],
          [
            -57.551021,
            -38.034122
          ],
          [
            -57.551874,
            -38.033479
          ],
          [
            -57.552654,
            -38.03289
          ],
          [
            -57.552757,
            -38.032813
          ],
          [
            -57.553376,
            -38.032347
          ],
          [
            -57.553494,
            -38.032259
          ],
          [
            -57.553636,
            -38.032151
          ],
          [
            -57.553697,
            -38.032105
          ],
          [
            -57.554511,
            -38.03149
          ],
          [
            -57.554546,
            -38.031464
          ],
          [
            -57.555396,
            -38.030822
          ],
          [
            -57.5561,
            -38.03029
          ],
          [
            -57.556263,
            -38.030168
          ],
          [
            -57.557135,
            -38.029509
          ],
          [
            -57.557999,
            -38.028857
          ],
          [
            -57.558659,
            -38.028358
          ],
          [
            -57.558802,
            -38.028251
          ],
          [
            -57.558798,
            -38.028129
          ],
          [
            -57.55828,
            -38.027487
          ],
          [
            -57.557652,
            -38.026705
          ],
          [
            -57.557022,
            -38.025921
          ],
          [
            -57.556379,
            -38.02511
          ],
          [
            -57.555736,
            -38.024321
          ],
          [
            -57.555055,
            -38.023474
          ],
          [
            -57.554346,
            -38.022591
          ],
          [
            -57.553739,
            -38.021834
          ],
          [
            -57.553111,
            -38.021053
          ],
          [
            -57.552446,
            -38.020225
          ],
          [
            -57.551824,
            -38.019451
          ],
          [
            -57.55119,
            -38.018663
          ],
          [
            -57.550553,
            -38.01787
          ],
          [
            -57.549915,
            -38.017075
          ],
          [
            -57.54927,
            -38.016272
          ],
          [
            -57.548633,
            -38.01548
          ],
          [
            -57.548619,
            -38.015462
          ],
          [
            -57.548004,
            -38.014697
          ],
          [
            -57.547343,
            -38.013874
          ],
          [
            -57.546722,
            -38.0131
          ],
          [
            -57.5461,
            -38.012326
          ],
          [
            -57.545074,
            -38.012832
          ],
          [
            -57.545065,
            -38.012836
          ],
          [
            -57.544061,
            -38.01334
          ],
          [
            -57.54342,
            -38.012536
          ],
          [
            -57.543209,
            -38.012274
          ],
          [
            -57.542788,
            -38.011749
          ],
          [
            -57.542508,
            -38.011399
          ],
          [
            -57.542153,
            -38.010956
          ],
          [
            -57.543128,
            -38.01046
          ],
          [
            -57.544169,
            -38.009939
          ],
          [
            -57.545112,
            -38.009454
          ],
          [
            -57.546147,
            -38.008931
          ],
          [
            -57.547099,
            -38.008457
          ],
          [
            -57.548135,
            -38.007938
          ],
          [
            -57.547469,
            -38.007119
          ],
          [
            -57.546852,
            -38.006361
          ],
          [
            -57.546161,
            -38.005512
          ],
          [
            -57.545139,
            -38.006028
          ],
          [
            -57.545111,
            -38.006042
          ],
          [
            -57.544199,
            -38.006498
          ],
          [
            -57.544199,
            -38.006498
          ],
          [
            -57.544178,
            -38.006512
          ],
          [
            -57.544046,
            -38.006578
          ],
          [
            -57.543269,
            -38.00697
          ],
          [
            -57.543156,
            -38.007026
          ],
          [
            -57.543077,
            -38.007067
          ],
          [
            -57.54215,
            -38.007534
          ],
          [
            -57.541507,
            -38.006778
          ],
          [
            -57.541908,
            -38.006419
          ],
          [
            -57.542027,
            -38.006285
          ],
          [
            -57.542122,
            -38.00616
          ],
          [
            -57.542206,
            -38.00605
          ],
          [
            -57.542273,
            -38.005932
          ],
          [
            -57.542342,
            -38.005786
          ],
          [
            -57.542385,
            -38.005679
          ],
          [
            -57.542424,
            -38.005572
          ],
          [
            -57.542463,
            -38.005449
          ],
          [
            -57.542493,
            -38.005348
          ],
          [
            -57.542526,
            -38.005226
          ],
          [
            -57.542557,
            -38.005103
          ],
          [
            -57.54271,
            -38.004948
          ],
          [
            -57.542802,
            -38.004888
          ],
          [
            -57.543655,
            -38.004456
          ],
          [
            -57.543761,
            -38.004403
          ],
          [
            -57.544823,
            -38.003866
          ],
          [
            -57.544172,
            -38.003067
          ],
          [
            -57.543191,
            -38.003587
          ],
          [
            -57.543133,
            -38.003618
          ],
          [
            -57.543031,
            -38.003673
          ],
          [
            -57.542847,
            -38.00377
          ],
          [
            -57.54281,
            -38.003783
          ],
          [
            -57.542771,
            -38.003792
          ],
          [
            -57.542726,
            -38.0038
          ],
          [
            -57.542661,
            -38.003806
          ],
          [
            -57.542583,
            -38.003808
          ],
          [
            -57.54253,
            -38.003803
          ],
          [
            -57.542468,
            -38.003786
          ],
          [
            -57.542204,
            -38.003188
          ],
          [
            -57.542163,
            -38.003096
          ],
          [
            -57.542358,
            -38.002932
          ],
          [
            -57.542507,
            -38.002849
          ],
          [
            -57.543554,
            -38.002313
          ],
          [
            -57.542898,
            -38.001488
          ],
          [
            -57.54228,
            -38.000733
          ],
          [
            -57.542205,
            -38.000641
          ],
          [
            -57.542114,
            -38.000687
          ],
          [
            -57.541705,
            -38.000894
          ],
          [
            -57.541658,
            -38.000914
          ],
          [
            -57.541603,
            -38.000934
          ],
          [
            -57.541607,
            -38.000947
          ],
          [
            -57.541643,
            -38.001076
          ],
          [
            -57.541819,
            -38.001776
          ],
          [
            -57.541834,
            -38.001827
          ],
          [
            -57.541857,
            -38.00189
          ],
          [
            -57.541871,
            -38.001921
          ],
          [
            -57.541899,
            -38.00198
          ],
          [
            -57.541936,
            -38.002045
          ],
          [
            -57.542454,
            -38.002787
          ],
          [
            -57.542507,
            -38.002849
          ],
          [
            -57.543554,
            -38.002313
          ],
          [
            -57.542898,
            -38.001488
          ],
          [
            -57.54228,
            -38.000733
          ],
          [
            -57.542205,
            -38.000641
          ],
          [
            -57.542114,
            -38.000687
          ],
          [
            -57.541705,
            -38.000894
          ],
          [
            -57.541658,
            -38.000914
          ],
          [
            -57.541603,
            -38.000934
          ],
          [
            -57.541544,
            -38.000951
          ],
          [
            -57.541476,
            -38.000965
          ],
          [
            -57.541458,
            -38.000789
          ],
          [
            -57.541396,
            -38.000249
          ],
          [
            -57.541391,
            -38.000177
          ],
          [
            -57.541392,
            -38.000105
          ],
          [
            -57.541399,
            -38.00001
          ],
          [
            -57.541407,
            -37.99995
          ],
          [
            -57.54142,
            -37.999874
          ],
          [
            -57.541479,
            -37.999579
          ],
          [
            -57.541489,
            -37.999538
          ],
          [
            -57.541511,
            -37.99944
          ],
          [
            -57.541563,
            -37.999226
          ],
          [
            -57.541604,
            -37.999016
          ],
          [
            -57.54161,
            -37.998964
          ],
          [
            -57.541633,
            -37.998916
          ],
          [
            -57.541657,
            -37.998889
          ],
          [
            -57.541695,
            -37.998856
          ],
          [
            -57.541741,
            -37.998832
          ],
          [
            -57.541776,
            -37.998818
          ],
          [
            -57.541829,
            -37.998803
          ],
          [
            -57.5419,
            -37.998795
          ],
          [
            -57.541956,
            -37.998795
          ],
          [
            -57.542017,
            -37.998805
          ],
          [
            -57.542067,
            -37.998824
          ],
          [
            -57.54211,
            -37.998845
          ],
          [
            -57.542147,
            -37.998873
          ],
          [
            -57.542175,
            -37.998904
          ],
          [
            -57.542198,
            -37.998938
          ],
          [
            -57.542214,
            -37.998972
          ],
          [
            -57.542451,
            -37.999185
          ],
          [
            -57.5436,
            -37.998856
          ],
          [
            -57.544724,
            -37.998555
          ],
          [
            -57.545893,
            -37.998229
          ],
          [
            -57.547054,
            -37.997912
          ],
          [
            -57.547214,
            -37.998109
          ],
          [
            -57.546221,
            -37.99861
          ],
          [
            -57.546208,
            -37.998617
          ],
          [
            -57.545893,
            -37.998229
          ],
          [
            -57.545527,
            -37.997777
          ],
          [
            -57.546539,
            -37.99726
          ],
          [
            -57.546578,
            -37.997323
          ],
          [
            -57.546961,
            -37.997797
          ],
          [
            -57.54699,
            -37.997832
          ],
          [
            -57.547038,
            -37.997892
          ],
          [
            -57.547054,
            -37.997912
          ],
          [
            -57.547595,
            -37.997758
          ],
          [
            -57.547839,
            -37.997677
          ],
          [
            -57.547904,
            -37.997642
          ],
          [
            -57.547908,
            -37.99764
          ],
          [
            -57.548038,
            -37.997535
          ],
          [
            -57.548081,
            -37.997501
          ],
          [
            -57.548138,
            -37.997478
          ],
          [
            -57.548201,
            -37.997469
          ],
          [
            -57.548372,
            -37.997444
          ],
          [
            -57.548488,
            -37.997418
          ],
          [
            -57.548606,
            -37.997382
          ],
          [
            -57.548816,
            -37.997319
          ],
          [
            -57.549192,
            -37.997121
          ],
          [
            -57.549174,
            -37.997099
          ],
          [
            -57.548494,
            -37.99626
          ],
          [
            -57.549511,
            -37.995755
          ],
          [
            -57.550204,
            -37.996611
          ],
          [
            -57.551213,
            -37.996103
          ],
          [
            -57.551197,
            -37.996084
          ],
          [
            -57.550509,
            -37.995254
          ],
          [
            -57.549859,
            -37.994438
          ],
          [
            -57.548852,
            -37.994942
          ],
          [
            -57.549511,
            -37.995755
          ],
          [
            -57.550204,
            -37.996611
          ],
          [
            -57.551213,
            -37.996103
          ],
          [
            -57.552278,
            -37.995561
          ],
          [
            -57.552302,
            -37.995549
          ],
          [
            -57.553384,
            -37.994999
          ],
          [
            -57.554366,
            -37.994499
          ],
          [
            -57.553668,
            -37.993643
          ],
          [
            -57.553026,
            -37.992836
          ],
          [
            -57.552046,
            -37.993332
          ],
          [
            -57.552685,
            -37.994144
          ],
          [
            -57.553381,
            -37.994995
          ],
          [
            -57.553384,
            -37.994999
          ],
          [
            -57.554366,
            -37.994499
          ],
          [
            -57.555353,
            -37.993997
          ],
          [
            -57.556362,
            -37.993484
          ],
          [
            -57.557374,
            -37.992969
          ],
          [
            -57.558386,
            -37.992455
          ],
          [
            -57.559378,
            -37.99195
          ],
          [
            -57.560383,
            -37.991439
          ],
          [
            -57.560552,
            -37.991353
          ],
          [
            -57.561367,
            -37.990938
          ],
          [
            -57.562368,
            -37.990429
          ],
          [
            -57.562281,
            -37.990321
          ],
          [
            -57.561967,
            -37.989931
          ],
          [
            -57.561857,
            -37.989797
          ],
          [
            -57.561712,
            -37.989617
          ],
          [
            -57.5617,
            -37.989603
          ],
          [
            -57.561273,
            -37.989086
          ],
          [
            -57.561174,
            -37.988966
          ],
          [
            -57.561037,
            -37.9888
          ],
          [
            -57.561027,
            -37.988788
          ],
          [
            -57.560365,
            -37.987993
          ],
          [
            -57.561406,
            -37.987469
          ],
          [
            -57.562385,
            -37.986976
          ],
          [
            -57.563382,
            -37.986474
          ],
          [
            -57.564361,
            -37.98598
          ],
          [
            -57.565393,
            -37.985463
          ],
          [
            -57.566387,
            -37.984963
          ],
          [
            -57.567043,
            -37.985745
          ],
          [
            -57.566033,
            -37.986256
          ],
          [
            -57.565015,
            -37.98677
          ],
          [
            -57.565004,
            -37.986776
          ],
          [
            -57.564345,
            -37.98711
          ],
          [
            -57.564216,
            -37.987175
          ],
          [
            -57.564027,
            -37.987272
          ],
          [
            -57.563382,
            -37.986474
          ],
          [
            -57.564361,
            -37.98598
          ],
          [
            -57.565393,
            -37.985463
          ],
          [
            -57.566387,
            -37.984963
          ],
          [
            -57.567375,
            -37.984465
          ],
          [
            -57.568409,
            -37.98395
          ],
          [
            -57.568531,
            -37.983889
          ],
          [
            -57.569505,
            -37.98339
          ],
          [
            -57.570488,
            -37.982891
          ],
          [
            -57.571477,
            -37.982392
          ],
          [
            -57.572501,
            -37.981874
          ],
          [
            -57.573483,
            -37.981377
          ],
          [
            -57.574472,
            -37.980876
          ],
          [
            -57.575501,
            -37.980352
          ],
          [
            -57.576148,
            -37.981157
          ],
          [
            -57.575151,
            -37.981658
          ],
          [
            -57.575102,
            -37.981682
          ],
          [
            -57.574472,
            -37.980876
          ],
          [
            -57.575501,
            -37.980352
          ],
          [
            -57.576498,
            -37.979851
          ],
          [
            -57.575872,
            -37.979069
          ],
          [
            -57.575227,
            -37.978285
          ],
          [
            -57.574534,
            -37.97743
          ],
          [
            -57.57551,
            -37.976934
          ],
          [
            -57.576508,
            -37.976433
          ],
          [
            -57.57749,
            -37.975941
          ],
          [
            -57.577916,
            -37.975728
          ],
          [
            -57.578072,
            -37.97562
          ],
          [
            -57.578136,
            -37.975576
          ],
          [
            -57.578173,
            -37.975542
          ],
          [
            -57.5782,
            -37.975512
          ],
          [
            -57.578224,
            -37.975479
          ],
          [
            -57.57825,
            -37.975439
          ],
          [
            -57.578274,
            -37.975396
          ],
          [
            -57.578294,
            -37.975352
          ],
          [
            -57.578319,
            -37.975292
          ],
          [
            -57.578316,
            -37.975232
          ],
          [
            -57.578302,
            -37.975147
          ],
          [
            -57.578297,
            -37.975091
          ],
          [
            -57.578283,
            -37.975037
          ],
          [
            -57.578262,
            -37.974985
          ],
          [
            -57.578233,
            -37.974931
          ],
          [
            -57.578208,
            -37.974889
          ],
          [
            -57.578181,
            -37.97485
          ],
          [
            -57.577431,
            -37.973916
          ],
          [
            -57.577281,
            -37.973725
          ],
          [
            -57.576946,
            -37.973292
          ],
          [
            -57.576868,
            -37.973182
          ],
          [
            -57.576679,
            -37.972913
          ],
          [
            -57.576538,
            -37.97267
          ],
          [
            -57.576453,
            -37.972487
          ],
          [
            -57.57636,
            -37.972275
          ],
          [
            -57.576283,
            -37.972026
          ],
          [
            -57.576245,
            -37.971809
          ],
          [
            -57.576227,
            -37.971586
          ],
          [
            -57.576229,
            -37.971295
          ],
          [
            -57.576249,
            -37.97098
          ],
          [
            -57.576266,
            -37.970839
          ],
          [
            -57.576399,
            -37.970216
          ],
          [
            -57.576572,
            -37.969562
          ],
          [
            -57.576922,
            -37.968306
          ],
          [
            -57.577053,
            -37.967817
          ],
          [
            -57.577074,
            -37.967632
          ],
          [
            -57.577072,
            -37.967484
          ],
          [
            -57.577048,
            -37.967431
          ],
          [
            -57.576993,
            -37.967289
          ],
          [
            -57.576963,
            -37.967134
          ],
          [
            -57.577,
            -37.966967
          ],
          [
            -57.577053,
            -37.966808
          ],
          [
            -57.577136,
            -37.966702
          ],
          [
            -57.577209,
            -37.966636
          ],
          [
            -57.577355,
            -37.966572
          ],
          [
            -57.577426,
            -37.966557
          ],
          [
            -57.577497,
            -37.966562
          ],
          [
            -57.577579,
            -37.966581
          ],
          [
            -57.577667,
            -37.96664
          ],
          [
            -57.577709,
            -37.966687
          ],
          [
            -57.577739,
            -37.966722
          ],
          [
            -57.577757,
            -37.966778
          ],
          [
            -57.577789,
            -37.966922
          ],
          [
            -57.577784,
            -37.967091
          ],
          [
            -57.577755,
            -37.96719
          ],
          [
            -57.577721,
            -37.967272
          ],
          [
            -57.577644,
            -37.967388
          ],
          [
            -57.577565,
            -37.967453
          ],
          [
            -57.577467,
            -37.967515
          ],
          [
            -57.577418,
            -37.967545
          ],
          [
            -57.57731,
            -37.967543
          ],
          [
            -57.577179,
            -37.967525
          ],
          [
            -57.577072,
            -37.967484
          ],
          [
            -57.577048,
            -37.967431
          ],
          [
            -57.576993,
            -37.967289
          ],
          [
            -57.576963,
            -37.967134
          ],
          [
            -57.577,
            -37.966967
          ],
          [
            -57.577053,
            -37.966808
          ],
          [
            -57.577136,
            -37.966702
          ],
          [
            -57.577209,
            -37.966636
          ],
          [
            -57.577355,
            -37.966572
          ],
          [
            -57.577426,
            -37.966557
          ],
          [
            -57.577497,
            -37.966562
          ],
          [
            -57.577579,
            -37.966581
          ],
          [
            -57.577714,
            -37.966622
          ],
          [
            -57.577819,
            -37.966625
          ],
          [
            -57.577947,
            -37.966602
          ],
          [
            -57.578291,
            -37.9665
          ],
          [
            -57.579338,
            -37.965968
          ],
          [
            -57.580323,
            -37.965467
          ],
          [
            -57.581345,
            -37.96496
          ],
          [
            -57.582336,
            -37.96446
          ],
          [
            -57.58332,
            -37.963953
          ],
          [
            -57.58393,
            -37.963649
          ],
          [
            -57.584008,
            -37.963611
          ],
          [
            -57.585322,
            -37.962947
          ],
          [
            -57.585371,
            -37.962922
          ],
          [
            -57.58644,
            -37.962369
          ],
          [
            -57.587463,
            -37.961867
          ],
          [
            -57.588434,
            -37.961376
          ],
          [
            -57.589414,
            -37.96088
          ],
          [
            -57.590433,
            -37.960364
          ],
          [
            -57.591409,
            -37.95987
          ],
          [
            -57.592429,
            -37.959327
          ],
          [
            -57.593434,
            -37.958824
          ],
          [
            -57.594422,
            -37.958339
          ],
          [
            -57.59544,
            -37.957831
          ],
          [
            -57.596456,
            -37.957317
          ],
          [
            -57.597389,
            -37.956845
          ],
          [
            -57.598401,
            -37.956333
          ],
          [
            -57.599398,
            -37.955828
          ],
          [
            -57.600389,
            -37.955327
          ],
          [
            -57.601405,
            -37.954813
          ],
          [
            -57.602387,
            -37.954317
          ],
          [
            -57.603391,
            -37.953809
          ],
          [
            -57.604405,
            -37.953295
          ],
          [
            -57.60442,
            -37.953287
          ],
          [
            -57.60541,
            -37.952787
          ],
          [
            -57.607388,
            -37.951786
          ]
        ],
        "type": "LineString"
      },
      "properties": {
        "linea": "533",
        "ramal": "Puerto",
        "nombre": "Línea 533 - Puerto"
      }
    },
    {
      "type": "Feature",
      "geometry": {
        "type": "Point",
        "coordinates": [
          -57.5464008,
          -38.0442365
        ]
      },
      "properties": {
        "linea": "533",
        "ramal": "Puerto",
        "numero_camara": "211",
        "direccion": "Magallanes & Figueroa Alcorta, Mar del Plata, Provincia de Buenos Aires, Argentina",
        "orden": 182
      }
    },
    {
      "type": "Feature",
      "geometry": {
        "type": "Point",
        "coordinates": [
          -57.5534127,
          -38.0389714
        ]
      },
      "properties": {
        "linea": "533",
        "ramal": "Puerto",
        "numero_camara": "357",
        "direccion": "Magallanes 4000, Mar del Plata, Provincia de Buenos Aires, Argentina",
        "orden": 183
      }
    },
    {
      "type": "Feature",
      "geometry": {
        "type": "Point",
        "coordinates": [
          -57.5545189,
          -38.0314965
        ]
      },
      "properties": {
        "linea": "533",
        "ramal": "Puerto",
        "numero_camara": "367",
        "direccion": "Avenida Juan B. Justo & Martín Miguel de Güemes, Mar del Plata, Provincia de Buenos Aires, Argentina",
        "orden": 184
      }
    },
    {
      "type": "Feature",
      "geometry": {
        "type": "Point",
        "coordinates": [
          -57.5450599,
          -38.0128302
        ]
      },
      "properties": {
        "linea": "533",
        "ramal": "Puerto",
        "numero_camara": "457",
        "direccion": "Garay & Las Heras, Mar del Plata, Provincia de Buenos Aires, Argentina",
        "orden": 185
      }
    },
    {
      "type": "Feature",
      "geometry": {
        "type": "Point",
        "coordinates": [
          -57.5441499,
          -38.0064477
        ]
      },
      "properties": {
        "linea": "533",
        "ramal": "Puerto",
        "numero_camara": "103",
        "direccion": "Avenida Colon y Tucuman, Mar del Plata, Provincia de Buenos Aires, Argentina",
        "orden": 186
      }
    },
    {
      "type": "Feature",
      "geometry": {
        "type": "Point",
        "coordinates": [
          -57.5431804,
          -38.0035742
        ]
      },
      "properties": {
        "linea": "533",
        "ramal": "Puerto",
        "numero_camara": "80",
        "direccion": "Buenos Aires 1900, Mar del Plata, Provincia de Buenos Aires, Argentina",
        "orden": 187
      }
    },
    {
      "type": "Feature",
      "geometry": {
        "type": "Point",
        "coordinates": [
          -57.5415961,
          -38.0009489
        ]
      },
      "properties": {
        "linea": "533",
        "ramal": "Puerto",
        "numero_camara": "705",
        "direccion": "Avenida Pedro Luro & Buenos Aires, Mar del Plata, Provincia de Buenos Aires, Argentina",
        "orden": 188
      }
    },
    {
      "type": "Feature",
      "geometry": {
        "type": "Point",
        "coordinates": [
          -57.5462189,
          -37.9986082
        ]
      },
      "properties": {
        "linea": "533",
        "ramal": "Puerto",
        "numero_camara": "436",
        "direccion": "Avenida Pedro Luro & Córdoba, Mar del Plata, Provincia de Buenos Aires, Argentina",
        "orden": 189
      }
    },
    {
      "type": "Feature",
      "geometry": {
        "type": "Point",
        "coordinates": [
          -57.5470348,
          -37.9978925
        ]
      },
      "properties": {
        "linea": "533",
        "ramal": "Puerto",
        "numero_camara": "85",
        "direccion": "Diagonal Alberdi Sur & San Luis, Mar del Plata, Provincia de Buenos Aires, Argentina",
        "orden": 190
      }
    },
    {
      "type": "Feature",
      "geometry": {
        "type": "Point",
        "coordinates": [
          -57.5491867,
          -37.9970932
        ]
      },
      "properties": {
        "linea": "533",
        "ramal": "Puerto",
        "numero_camara": "57",
        "direccion": "Avenida Pedro Luro & Hipólito Yrigoyen, Mar del Plata, Provincia de Buenos Aires, Argentina",
        "orden": 191
      }
    },
    {
      "type": "Feature",
      "geometry": {
        "type": "Point",
        "coordinates": [
          -57.5512087,
          -37.9960776
        ]
      },
      "properties": {
        "linea": "533",
        "ramal": "Puerto",
        "numero_camara": "56",
        "direccion": "Avenida Pedro Luro & Catamarca, Mar del Plata, Provincia de Buenos Aires, Argentina",
        "orden": 192
      }
    },
    {
      "type": "Feature",
      "geometry": {
        "type": "Point",
        "coordinates": [
          -57.5522649,
          -37.9955452
        ]
      },
      "properties": {
        "linea": "533",
        "ramal": "Puerto",
        "numero_camara": "596",
        "direccion": "Avenida Independencia & Avenida Pedro Luro, Mar del Plata, Provincia de Buenos Aires, Argentina",
        "orden": 193
      }
    },
    {
      "type": "Feature",
      "geometry": {
        "type": "Point",
        "coordinates": [
          -57.5533841,
          -37.9949944
        ]
      },
      "properties": {
        "linea": "533",
        "ramal": "Puerto",
        "numero_camara": "59",
        "direccion": "Avenida Pedro Luro & Salta, Mar del Plata, Provincia de Buenos Aires, Argentina",
        "orden": 194
      }
    },
    {
      "type": "Feature",
      "geometry": {
        "type": "Point",
        "coordinates": [
          -57.5610421,
          -37.9887983
        ]
      },
      "properties": {
        "linea": "533",
        "ramal": "Puerto",
        "numero_camara": "3",
        "direccion": "San Juan & 9 de Julio,  Mar del Plata, Provincia de Buenos Aires, Argentina",
        "orden": 195
      }
    },
    {
      "type": "Feature",
      "geometry": {
        "type": "Point",
        "coordinates": [
          -57.5650311,
          -37.9867903
        ]
      },
      "properties": {
        "linea": "533",
        "ramal": "Puerto",
        "numero_camara": "509",
        "direccion": "9 de Julio & Italia, Mar del Plata, Provincia de Buenos Aires, Argentina",
        "orden": 196
      }
    },
    {
      "type": "Feature",
      "geometry": {
        "type": "Point",
        "coordinates": [
          -57.5751349,
          -37.9816377
        ]
      },
      "properties": {
        "linea": "533",
        "ramal": "Puerto",
        "numero_camara": "484",
        "direccion": "9 de Julio & Perú, Mar del Plata, Provincia de Buenos Aires, Argentina",
        "orden": 197
      }
    },
    {
      "type": "Feature",
      "geometry": {
        "type": "Point",
        "coordinates": [
          -57.5774929,
          -37.9668045
        ]
      },
      "properties": {
        "linea": "533",
        "ramal": "Puerto",
        "numero_camara": "139",
        "direccion": "Beruti 6654, Mar del Plata, Provincia de Buenos Aires, Argentina",
        "orden": 198
      }
    },
    {
      "type": "Feature",
      "geometry": {
        "type": "Point",
        "coordinates": [
          -57.5853132,
          -37.9629357
        ]
      },
      "properties": {
        "linea": "533",
        "ramal": "Puerto",
        "numero_camara": "14",
        "direccion": "Avenida Doctor Arturo Alió & Beruti, Mar del Plata, Provincia de Buenos Aires, Argentina",
        "orden": 199
      }
    },
    {
      "type": "Feature",
      "geometry": {
        "type": "Point",
        "coordinates": [
          -57.6044113,
          -37.9532762
        ]
      },
      "properties": {
        "linea": "533",
        "ramal": "Puerto",
        "numero_camara": "599",
        "direccion": "Beruti & República Árabe Siria, Mar del Plata, Provincia de Buenos Aires, Argentina",
        "orden": 200
      }
    },
    {
      "type": "Feature",
      "geometry": {
        "type": "Point",
        "coordinates": [
          -57.6073873,
          -37.9517839
        ]
      },
      "properties": {
        "linea": "533",
        "ramal": "Puerto",
        "numero_camara": "310",
        "direccion": "Beruti 9600, Mar del Plata, Provincia de Buenos Aires, Argentina",
        "orden": 201
      }
    },
    {
      "type": "Feature",
      "geometry": {
        "coordinates": [
          [
            -57.607388,
            -37.951786
          ],
          [
            -57.60541,
            -37.952787
          ],
          [
            -57.60442,
            -37.953287
          ],
          [
            -57.604405,
            -37.953295
          ],
          [
            -57.603391,
            -37.953809
          ],
          [
            -57.602387,
            -37.954317
          ],
          [
            -57.601405,
            -37.954813
          ],
          [
            -57.600389,
            -37.955327
          ],
          [
            -57.599398,
            -37.955828
          ],
          [
            -57.598401,
            -37.956333
          ],
          [
            -57.597389,
            -37.956845
          ],
          [
            -57.596456,
            -37.957317
          ],
          [
            -57.59544,
            -37.957831
          ],
          [
            -57.594422,
            -37.958339
          ],
          [
            -57.593434,
            -37.958824
          ],
          [
            -57.592429,
            -37.959327
          ],
          [
            -57.591409,
            -37.95987
          ],
          [
            -57.590433,
            -37.960364
          ],
          [
            -57.589414,
            -37.96088
          ],
          [
            -57.588434,
            -37.961376
          ],
          [
            -57.587463,
            -37.961867
          ],
          [
            -57.58644,
            -37.962369
          ],
          [
            -57.585371,
            -37.962922
          ],
          [
            -57.585322,
            -37.962947
          ],
          [
            -57.584008,
            -37.963611
          ],
          [
            -57.58393,
            -37.963649
          ],
          [
            -57.58332,
            -37.963953
          ],
          [
            -57.582336,
            -37.96446
          ],
          [
            -57.581345,
            -37.96496
          ],
          [
            -57.580323,
            -37.965467
          ],
          [
            -57.579338,
            -37.965968
          ],
          [
            -57.578291,
            -37.9665
          ],
          [
            -57.577987,
            -37.96669
          ],
          [
            -57.577891,
            -37.966798
          ],
          [
            -57.577784,
            -37.967091
          ],
          [
            -57.577755,
            -37.96719
          ],
          [
            -57.577721,
            -37.967272
          ],
          [
            -57.577644,
            -37.967388
          ],
          [
            -57.577565,
            -37.967453
          ],
          [
            -57.577467,
            -37.967515
          ],
          [
            -57.577418,
            -37.967545
          ],
          [
            -57.57731,
            -37.967543
          ],
          [
            -57.577179,
            -37.967525
          ],
          [
            -57.577072,
            -37.967484
          ],
          [
            -57.577048,
            -37.967431
          ],
          [
            -57.576993,
            -37.967289
          ],
          [
            -57.576963,
            -37.967134
          ],
          [
            -57.577,
            -37.966967
          ],
          [
            -57.577053,
            -37.966808
          ],
          [
            -57.577136,
            -37.966702
          ],
          [
            -57.577209,
            -37.966636
          ],
          [
            -57.577355,
            -37.966572
          ],
          [
            -57.577426,
            -37.966557
          ],
          [
            -57.577497,
            -37.966562
          ],
          [
            -57.577579,
            -37.966581
          ],
          [
            -57.577667,
            -37.96664
          ],
          [
            -57.577709,
            -37.966687
          ],
          [
            -57.577739,
            -37.966722
          ],
          [
            -57.577757,
            -37.966778
          ],
          [
            -57.577789,
            -37.966922
          ],
          [
            -57.577784,
            -37.967091
          ],
          [
            -57.577755,
            -37.96719
          ],
          [
            -57.577721,
            -37.967272
          ],
          [
            -57.577644,
            -37.967388
          ],
          [
            -57.577565,
            -37.967453
          ],
          [
            -57.577467,
            -37.967515
          ],
          [
            -57.577418,
            -37.967545
          ],
          [
            -57.577294,
            -37.967746
          ],
          [
            -57.577217,
            -37.96789
          ],
          [
            -57.577103,
            -37.968217
          ],
          [
            -57.576711,
            -37.969522
          ],
          [
            -57.576539,
            -37.970174
          ],
          [
            -57.576478,
            -37.970464
          ],
          [
            -57.576453,
            -37.970568
          ],
          [
            -57.576394,
            -37.970875
          ],
          [
            -57.576356,
            -37.971082
          ],
          [
            -57.57634,
            -37.971322
          ],
          [
            -57.57634,
            -37.97154
          ],
          [
            -57.576355,
            -37.971717
          ],
          [
            -57.576405,
            -37.971967
          ],
          [
            -57.576421,
            -37.972042
          ],
          [
            -57.576531,
            -37.972378
          ],
          [
            -57.576645,
            -37.972635
          ],
          [
            -57.576791,
            -37.972857
          ],
          [
            -57.576931,
            -37.973089
          ],
          [
            -57.577042,
            -37.973235
          ],
          [
            -57.577385,
            -37.973673
          ],
          [
            -57.578023,
            -37.974476
          ],
          [
            -57.579175,
            -37.9749
          ],
          [
            -57.579341,
            -37.974961
          ],
          [
            -57.580507,
            -37.974378
          ],
          [
            -57.580553,
            -37.974437
          ],
          [
            -57.57939,
            -37.975015
          ],
          [
            -57.579272,
            -37.975083
          ],
          [
            -57.579224,
            -37.975109
          ],
          [
            -57.57917,
            -37.975148
          ],
          [
            -57.579113,
            -37.975206
          ],
          [
            -57.579075,
            -37.975254
          ],
          [
            -57.579041,
            -37.975303
          ],
          [
            -57.579017,
            -37.97535
          ],
          [
            -57.578998,
            -37.975395
          ],
          [
            -57.578984,
            -37.975433
          ],
          [
            -57.578988,
            -37.975475
          ],
          [
            -57.578983,
            -37.975515
          ],
          [
            -57.57895,
            -37.97557
          ],
          [
            -57.578917,
            -37.975602
          ],
          [
            -57.578883,
            -37.975627
          ],
          [
            -57.578839,
            -37.975646
          ],
          [
            -57.578793,
            -37.975656
          ],
          [
            -57.578753,
            -37.975659
          ],
          [
            -57.578709,
            -37.975658
          ],
          [
            -57.578662,
            -37.975654
          ],
          [
            -57.578623,
            -37.975638
          ],
          [
            -57.578508,
            -37.975624
          ],
          [
            -57.578424,
            -37.975617
          ],
          [
            -57.578352,
            -37.975617
          ],
          [
            -57.578293,
            -37.97562
          ],
          [
            -57.578237,
            -37.975629
          ],
          [
            -57.578177,
            -37.975644
          ],
          [
            -57.5781,
            -37.975666
          ],
          [
            -57.577916,
            -37.975728
          ],
          [
            -57.57749,
            -37.975941
          ],
          [
            -57.576508,
            -37.976433
          ],
          [
            -57.57551,
            -37.976934
          ],
          [
            -57.574534,
            -37.97743
          ],
          [
            -57.574042,
            -37.977678
          ],
          [
            -57.573549,
            -37.977928
          ],
          [
            -57.573633,
            -37.978032
          ],
          [
            -57.57424,
            -37.978784
          ],
          [
            -57.574872,
            -37.97957
          ],
          [
            -57.575501,
            -37.980352
          ],
          [
            -57.576148,
            -37.981157
          ],
          [
            -57.575151,
            -37.981658
          ],
          [
            -57.575102,
            -37.981682
          ],
          [
            -57.574244,
            -37.982117
          ],
          [
            -57.574125,
            -37.982177
          ],
          [
            -57.573154,
            -37.982666
          ],
          [
            -57.572119,
            -37.983193
          ],
          [
            -57.571143,
            -37.983685
          ],
          [
            -57.570149,
            -37.984191
          ],
          [
            -57.569174,
            -37.984685
          ],
          [
            -57.569061,
            -37.984741
          ],
          [
            -57.568026,
            -37.985258
          ],
          [
            -57.567043,
            -37.985745
          ],
          [
            -57.566033,
            -37.986256
          ],
          [
            -57.565015,
            -37.98677
          ],
          [
            -57.565004,
            -37.986776
          ],
          [
            -57.564345,
            -37.98711
          ],
          [
            -57.564216,
            -37.987175
          ],
          [
            -57.564027,
            -37.987272
          ],
          [
            -57.563026,
            -37.987777
          ],
          [
            -57.56204,
            -37.988276
          ],
          [
            -57.561651,
            -37.988473
          ],
          [
            -57.561689,
            -37.988518
          ],
          [
            -57.561699,
            -37.988531
          ],
          [
            -57.561709,
            -37.988543
          ],
          [
            -57.561762,
            -37.988608
          ],
          [
            -57.561768,
            -37.988619
          ],
          [
            -57.56177,
            -37.988641
          ],
          [
            -57.561758,
            -37.988685
          ],
          [
            -57.561741,
            -37.988684
          ],
          [
            -57.561712,
            -37.988687
          ],
          [
            -57.561274,
            -37.988914
          ],
          [
            -57.561174,
            -37.988966
          ],
          [
            -57.561037,
            -37.9888
          ],
          [
            -57.561027,
            -37.988788
          ],
          [
            -57.560027,
            -37.989295
          ],
          [
            -57.559052,
            -37.989788
          ],
          [
            -57.558024,
            -37.990308
          ],
          [
            -57.557045,
            -37.990803
          ],
          [
            -57.556035,
            -37.991314
          ],
          [
            -57.555032,
            -37.991821
          ],
          [
            -57.554022,
            -37.992332
          ],
          [
            -57.553026,
            -37.992836
          ],
          [
            -57.552046,
            -37.993332
          ],
          [
            -57.552685,
            -37.994144
          ],
          [
            -57.553381,
            -37.994995
          ],
          [
            -57.553384,
            -37.994999
          ],
          [
            -57.552302,
            -37.995549
          ],
          [
            -57.552278,
            -37.995561
          ],
          [
            -57.551213,
            -37.996103
          ],
          [
            -57.550204,
            -37.996611
          ],
          [
            -57.549192,
            -37.997121
          ],
          [
            -57.548816,
            -37.997319
          ],
          [
            -57.548703,
            -37.997399
          ],
          [
            -57.54864,
            -37.997446
          ],
          [
            -57.548576,
            -37.9975
          ],
          [
            -57.548546,
            -37.997526
          ],
          [
            -57.548534,
            -37.997536
          ],
          [
            -57.548485,
            -37.997588
          ],
          [
            -57.548396,
            -37.997705
          ],
          [
            -57.54835,
            -37.997755
          ],
          [
            -57.548295,
            -37.997784
          ],
          [
            -57.548231,
            -37.997799
          ],
          [
            -57.548165,
            -37.997797
          ],
          [
            -57.548095,
            -37.997775
          ],
          [
            -57.54804,
            -37.997736
          ],
          [
            -57.548005,
            -37.997683
          ],
          [
            -57.547996,
            -37.997625
          ],
          [
            -57.548009,
            -37.997577
          ],
          [
            -57.548038,
            -37.997535
          ],
          [
            -57.548081,
            -37.997501
          ],
          [
            -57.548138,
            -37.997478
          ],
          [
            -57.548201,
            -37.997469
          ],
          [
            -57.548372,
            -37.997444
          ],
          [
            -57.548488,
            -37.997418
          ],
          [
            -57.548606,
            -37.997382
          ],
          [
            -57.548816,
            -37.997319
          ],
          [
            -57.549192,
            -37.997121
          ],
          [
            -57.550204,
            -37.996611
          ],
          [
            -57.551213,
            -37.996103
          ],
          [
            -57.551197,
            -37.996084
          ],
          [
            -57.550509,
            -37.995254
          ],
          [
            -57.549859,
            -37.994438
          ],
          [
            -57.548852,
            -37.994942
          ],
          [
            -57.547843,
            -37.995455
          ],
          [
            -57.546857,
            -37.995959
          ],
          [
            -57.547513,
            -37.996762
          ],
          [
            -57.547586,
            -37.996852
          ],
          [
            -57.54802,
            -37.997421
          ],
          [
            -57.548081,
            -37.997501
          ],
          [
            -57.548138,
            -37.997478
          ],
          [
            -57.548201,
            -37.997469
          ],
          [
            -57.548372,
            -37.997444
          ],
          [
            -57.548488,
            -37.997418
          ],
          [
            -57.548606,
            -37.997382
          ],
          [
            -57.548816,
            -37.997319
          ],
          [
            -57.549192,
            -37.997121
          ],
          [
            -57.549174,
            -37.997099
          ],
          [
            -57.548494,
            -37.99626
          ],
          [
            -57.547843,
            -37.995455
          ],
          [
            -57.546857,
            -37.995959
          ],
          [
            -57.546832,
            -37.995972
          ],
          [
            -57.545881,
            -37.996452
          ],
          [
            -57.546539,
            -37.99726
          ],
          [
            -57.546578,
            -37.997323
          ],
          [
            -57.546961,
            -37.997797
          ],
          [
            -57.54699,
            -37.997832
          ],
          [
            -57.547038,
            -37.997892
          ],
          [
            -57.547054,
            -37.997912
          ],
          [
            -57.547214,
            -37.998109
          ],
          [
            -57.546221,
            -37.99861
          ],
          [
            -57.546208,
            -37.998617
          ],
          [
            -57.545859,
            -37.998794
          ],
          [
            -57.545187,
            -37.999133
          ],
          [
            -57.544205,
            -37.99963
          ],
          [
            -57.543219,
            -38.000128
          ],
          [
            -57.543129,
            -38.000174
          ],
          [
            -57.542287,
            -38.0006
          ],
          [
            -57.542205,
            -38.000641
          ],
          [
            -57.542114,
            -38.000687
          ],
          [
            -57.541705,
            -38.000894
          ],
          [
            -57.541658,
            -38.000914
          ],
          [
            -57.541603,
            -38.000934
          ],
          [
            -57.541607,
            -38.000947
          ],
          [
            -57.541643,
            -38.001076
          ],
          [
            -57.541819,
            -38.001776
          ],
          [
            -57.541834,
            -38.001827
          ],
          [
            -57.541857,
            -38.00189
          ],
          [
            -57.541871,
            -38.001921
          ],
          [
            -57.541899,
            -38.00198
          ],
          [
            -57.541936,
            -38.002045
          ],
          [
            -57.542454,
            -38.002787
          ],
          [
            -57.542507,
            -38.002849
          ],
          [
            -57.543072,
            -38.003542
          ],
          [
            -57.543133,
            -38.003618
          ],
          [
            -57.543191,
            -38.00369
          ],
          [
            -57.54371,
            -38.004338
          ],
          [
            -57.543761,
            -38.004403
          ],
          [
            -57.544823,
            -38.003866
          ],
          [
            -57.544172,
            -38.003067
          ],
          [
            -57.543191,
            -38.003587
          ],
          [
            -57.543133,
            -38.003618
          ],
          [
            -57.543191,
            -38.00369
          ],
          [
            -57.54371,
            -38.004338
          ],
          [
            -57.543761,
            -38.004403
          ],
          [
            -57.543846,
            -38.004504
          ],
          [
            -57.544385,
            -38.00516
          ],
          [
            -57.544427,
            -38.005211
          ],
          [
            -57.544477,
            -38.005277
          ],
          [
            -57.545001,
            -38.00591
          ],
          [
            -57.545111,
            -38.006042
          ],
          [
            -57.544199,
            -38.006498
          ],
          [
            -57.544199,
            -38.006498
          ],
          [
            -57.544178,
            -38.006512
          ],
          [
            -57.544046,
            -38.006578
          ],
          [
            -57.543269,
            -38.00697
          ],
          [
            -57.543156,
            -38.007026
          ],
          [
            -57.543077,
            -38.007067
          ],
          [
            -57.54215,
            -38.007534
          ],
          [
            -57.541124,
            -38.008051
          ],
          [
            -57.541825,
            -38.008882
          ],
          [
            -57.542473,
            -38.009648
          ],
          [
            -57.543128,
            -38.01046
          ],
          [
            -57.543768,
            -38.011252
          ],
          [
            -57.544169,
            -38.01173
          ],
          [
            -57.544429,
            -38.012039
          ],
          [
            -57.545074,
            -38.012832
          ],
          [
            -57.545065,
            -38.012836
          ],
          [
            -57.544061,
            -38.01334
          ],
          [
            -57.543096,
            -38.013826
          ],
          [
            -57.543066,
            -38.013841
          ],
          [
            -57.54369,
            -38.014611
          ],
          [
            -57.544312,
            -38.015378
          ],
          [
            -57.544983,
            -38.016205
          ],
          [
            -57.545615,
            -38.016985
          ],
          [
            -57.54626,
            -38.017779
          ],
          [
            -57.546901,
            -38.018571
          ],
          [
            -57.547548,
            -38.019368
          ],
          [
            -57.548188,
            -38.020156
          ],
          [
            -57.548842,
            -38.020963
          ],
          [
            -57.549451,
            -38.021714
          ],
          [
            -57.550121,
            -38.02254
          ],
          [
            -57.550758,
            -38.023326
          ],
          [
            -57.551369,
            -38.024079
          ],
          [
            -57.552076,
            -38.024976
          ],
          [
            -57.552753,
            -38.025826
          ],
          [
            -57.5534,
            -38.026618
          ],
          [
            -57.554017,
            -38.027415
          ],
          [
            -57.554647,
            -38.028196
          ],
          [
            -57.555292,
            -38.028982
          ],
          [
            -57.555935,
            -38.029765
          ],
          [
            -57.556263,
            -38.030168
          ],
          [
            -57.55635,
            -38.030246
          ],
          [
            -57.556188,
            -38.030371
          ],
          [
            -57.555322,
            -38.031022
          ],
          [
            -57.554479,
            -38.031659
          ],
          [
            -57.553751,
            -38.032208
          ],
          [
            -57.553622,
            -38.032307
          ],
          [
            -57.553636,
            -38.032151
          ],
          [
            -57.553697,
            -38.032105
          ],
          [
            -57.554511,
            -38.03149
          ],
          [
            -57.554546,
            -38.031464
          ],
          [
            -57.554479,
            -38.031659
          ],
          [
            -57.553751,
            -38.032208
          ],
          [
            -57.553622,
            -38.032307
          ],
          [
            -57.553491,
            -38.032405
          ],
          [
            -57.553468,
            -38.032422
          ],
          [
            -57.552744,
            -38.032967
          ],
          [
            -57.551904,
            -38.033601
          ],
          [
            -57.551035,
            -38.034256
          ],
          [
            -57.550302,
            -38.034809
          ],
          [
            -57.550174,
            -38.034905
          ],
          [
            -57.550094,
            -38.034965
          ],
          [
            -57.549323,
            -38.035546
          ],
          [
            -57.550157,
            -38.036248
          ],
          [
            -57.550935,
            -38.036928
          ],
          [
            -57.551773,
            -38.037591
          ],
          [
            -57.552619,
            -38.038266
          ],
          [
            -57.553416,
            -38.038956
          ],
          [
            -57.553405,
            -38.038964
          ],
          [
            -57.552547,
            -38.039611
          ],
          [
            -57.551693,
            -38.040254
          ],
          [
            -57.550838,
            -38.040899
          ],
          [
            -57.549975,
            -38.041547
          ],
          [
            -57.549103,
            -38.042211
          ],
          [
            -57.549023,
            -38.042271
          ],
          [
            -57.548156,
            -38.042934
          ],
          [
            -57.547267,
            -38.043568
          ],
          [
            -57.546414,
            -38.044205
          ],
          [
            -57.546387,
            -38.044225
          ]
        ],
        "type": "LineString"
      },
      "properties": {
        "linea": "533",
        "ramal": "principal",
        "nombre": "Línea 533 - principal"
      }
    },
    {
      "type": "Feature",
      "geometry": {
        "type": "Point",
        "coordinates": [
          -57.6073873,
          -37.9517839
        ]
      },
      "properties": {
        "linea": "533",
        "ramal": "principal",
        "numero_camara": "310",
        "direccion": "Beruti 9600, Mar del Plata, Provincia de Buenos Aires, Argentina",
        "orden": 816
      }
    },
    {
      "type": "Feature",
      "geometry": {
        "type": "Point",
        "coordinates": [
          -57.6044113,
          -37.9532762
        ]
      },
      "properties": {
        "linea": "533",
        "ramal": "principal",
        "numero_camara": "599",
        "direccion": "Beruti & República Árabe Siria, Mar del Plata, Provincia de Buenos Aires, Argentina",
        "orden": 817
      }
    },
    {
      "type": "Feature",
      "geometry": {
        "type": "Point",
        "coordinates": [
          -57.5853132,
          -37.9629357
        ]
      },
      "properties": {
        "linea": "533",
        "ramal": "principal",
        "numero_camara": "14",
        "direccion": "Avenida Doctor Arturo Alió & Beruti, Mar del Plata, Provincia de Buenos Aires, Argentina",
        "orden": 818
      }
    },
    {
      "type": "Feature",
      "geometry": {
        "type": "Point",
        "coordinates": [
          -57.5774929,
          -37.9668045
        ]
      },
      "properties": {
        "linea": "533",
        "ramal": "principal",
        "numero_camara": "139",
        "direccion": "Beruti 6654, Mar del Plata, Provincia de Buenos Aires, Argentina",
        "orden": 819
      }
    },
    {
      "type": "Feature",
      "geometry": {
        "type": "Point",
        "coordinates": [
          -57.5792254,
          -37.9748161
        ]
      },
      "properties": {
        "linea": "533",
        "ramal": "principal",
        "numero_camara": "125",
        "direccion": "Libertad y champagnat, Mar del Plata, Provincia de Buenos Aires, Argentina",
        "orden": 820
      }
    },
    {
      "type": "Feature",
      "geometry": {
        "type": "Point",
        "coordinates": [
          -57.5751349,
          -37.9816377
        ]
      },
      "properties": {
        "linea": "533",
        "ramal": "principal",
        "numero_camara": "484",
        "direccion": "9 de Julio & Perú, Mar del Plata, Provincia de Buenos Aires, Argentina",
        "orden": 821
      }
    },
    {
      "type": "Feature",
      "geometry": {
        "type": "Point",
        "coordinates": [
          -57.5650311,
          -37.9867903
        ]
      },
      "properties": {
        "linea": "533",
        "ramal": "principal",
        "numero_camara": "509",
        "direccion": "9 de Julio & Italia, Mar del Plata, Provincia de Buenos Aires, Argentina",
        "orden": 822
      }
    },
    {
      "type": "Feature",
      "geometry": {
        "type": "Point",
        "coordinates": [
          -57.5610421,
          -37.9887983
        ]
      },
      "properties": {
        "linea": "533",
        "ramal": "principal",
        "numero_camara": "3",
        "direccion": "San Juan & 9 de Julio,  Mar del Plata, Provincia de Buenos Aires, Argentina",
        "orden": 823
      }
    },
    {
      "type": "Feature",
      "geometry": {
        "type": "Point",
        "coordinates": [
          -57.5533841,
          -37.9949944
        ]
      },
      "properties": {
        "linea": "533",
        "ramal": "principal",
        "numero_camara": "59",
        "direccion": "Avenida Pedro Luro & Salta, Mar del Plata, Provincia de Buenos Aires, Argentina",
        "orden": 824
      }
    },
    {
      "type": "Feature",
      "geometry": {
        "type": "Point",
        "coordinates": [
          -57.5522649,
          -37.9955452
        ]
      },
      "properties": {
        "linea": "533",
        "ramal": "principal",
        "numero_camara": "596",
        "direccion": "Avenida Independencia & Avenida Pedro Luro, Mar del Plata, Provincia de Buenos Aires, Argentina",
        "orden": 825
      }
    },
    {
      "type": "Feature",
      "geometry": {
        "type": "Point",
        "coordinates": [
          -57.5512087,
          -37.9960776
        ]
      },
      "properties": {
        "linea": "533",
        "ramal": "principal",
        "numero_camara": "56",
        "direccion": "Avenida Pedro Luro & Catamarca, Mar del Plata, Provincia de Buenos Aires, Argentina",
        "orden": 826
      }
    },
    {
      "type": "Feature",
      "geometry": {
        "type": "Point",
        "coordinates": [
          -57.5491867,
          -37.9970932
        ]
      },
      "properties": {
        "linea": "533",
        "ramal": "principal",
        "numero_camara": "57",
        "direccion": "Avenida Pedro Luro & Hipólito Yrigoyen, Mar del Plata, Provincia de Buenos Aires, Argentina",
        "orden": 827
      }
    },
    {
      "type": "Feature",
      "geometry": {
        "type": "Point",
        "coordinates": [
          -57.5470348,
          -37.9978925
        ]
      },
      "properties": {
        "linea": "533",
        "ramal": "principal",
        "numero_camara": "85",
        "direccion": "Diagonal Alberdi Sur & San Luis, Mar del Plata, Provincia de Buenos Aires, Argentina",
        "orden": 828
      }
    },
    {
      "type": "Feature",
      "geometry": {
        "type": "Point",
        "coordinates": [
          -57.5462189,
          -37.9986082
        ]
      },
      "properties": {
        "linea": "533",
        "ramal": "principal",
        "numero_camara": "436",
        "direccion": "Avenida Pedro Luro & Córdoba, Mar del Plata, Provincia de Buenos Aires, Argentina",
        "orden": 829
      }
    },
    {
      "type": "Feature",
      "geometry": {
        "type": "Point",
        "coordinates": [
          -57.5415961,
          -38.0009489
        ]
      },
      "properties": {
        "linea": "533",
        "ramal": "principal",
        "numero_camara": "705",
        "direccion": "Avenida Pedro Luro & Buenos Aires, Mar del Plata, Provincia de Buenos Aires, Argentina",
        "orden": 830
      }
    },
    {
      "type": "Feature",
      "geometry": {
        "type": "Point",
        "coordinates": [
          -57.5431804,
          -38.0035742
        ]
      },
      "properties": {
        "linea": "533",
        "ramal": "principal",
        "numero_camara": "80",
        "direccion": "Buenos Aires 1900, Mar del Plata, Provincia de Buenos Aires, Argentina",
        "orden": 831
      }
    },
    {
      "type": "Feature",
      "geometry": {
        "type": "Point",
        "coordinates": [
          -57.5441499,
          -38.0064477
        ]
      },
      "properties": {
        "linea": "533",
        "ramal": "principal",
        "numero_camara": "103",
        "direccion": "Avenida Colon y Tucuman, Mar del Plata, Provincia de Buenos Aires, Argentina",
        "orden": 832
      }
    },
    {
      "type": "Feature",
      "geometry": {
        "type": "Point",
        "coordinates": [
          -57.5450599,
          -38.0128302
        ]
      },
      "properties": {
        "linea": "533",
        "ramal": "principal",
        "numero_camara": "457",
        "direccion": "Garay & Las Heras, Mar del Plata, Provincia de Buenos Aires, Argentina",
        "orden": 833
      }
    },
    {
      "type": "Feature",
      "geometry": {
        "type": "Point",
        "coordinates": [
          -57.5545189,
          -38.0314965
        ]
      },
      "properties": {
        "linea": "533",
        "ramal": "principal",
        "numero_camara": "367",
        "direccion": "Avenida Juan B. Justo & Martín Miguel de Güemes, Mar del Plata, Provincia de Buenos Aires, Argentina",
        "orden": 834
      }
    },
    {
      "type": "Feature",
      "geometry": {
        "type": "Point",
        "coordinates": [
          -57.5534127,
          -38.0389714
        ]
      },
      "properties": {
        "linea": "533",
        "ramal": "principal",
        "numero_camara": "357",
        "direccion": "Magallanes 4000, Mar del Plata, Provincia de Buenos Aires, Argentina",
        "orden": 835
      }
    },
    {
      "type": "Feature",
      "geometry": {
        "type": "Point",
        "coordinates": [
          -57.5464008,
          -38.0442365
        ]
      },
      "properties": {
        "linea": "533",
        "ramal": "principal",
        "numero_camara": "211",
        "direccion": "Magallanes & Figueroa Alcorta, Mar del Plata, Provincia de Buenos Aires, Argentina",
        "orden": 836
      }
    }
  ]
}