{
  "type": "FeatureCollection",
  "features": [
    {
      "type": "Feature",
      "geometry": {
        "coordinates": [
          [
            -57.591492,
            -37.975821
          ],
          [
            -57.590484,
            -37.97633
          ],
          [
            -57.590473,
            -37.976317
          ],
          [
            -57.590414,
            -37.976245
          ],
          [
            -57.586427,
            -37.978261
          ],
          [
            -57.586361,
            -37.97818
          ],
          [
            -57.586368,
            -37.978177
          ],
          [
            -57.587355,
            -37.977677
          ],
          [
            -57.588367,
            -37.977165
          ],
          [
            -57.589358,
            -37.976664
          ],
          [
            -57.590348,
            -37.976163
          ],
          [
            -57.590414,
            -37.976245
          ],
          [
            -57.590484,
            -37.97633
          ],
          [
            -57.589492,
            -37.976832
          ],
          [
            -57.588504,
            -37.977332
          ],
          [
            -57.587482,
            -37.977849
          ],
          [
            -57.586498,
            -37.978347
          ],
          [
            -57.585514,
            -37.978845
          ],
          [
            -57.584511,
            -37.979352
          ],
          [
            -57.583513,
            -37.979857
          ],
          [
            -57.583446,
            -37.979892
          ],
          [
            -57.583393,
            -37.97992
          ],
          [
            -57.583325,
            -37.979961
          ],
          [
            -57.583057,
            -37.980195
          ],
          [
            -57.583038,
            -37.980256
          ],
          [
            -57.583021,
            -37.980326
          ],
          [
            -57.582996,
            -37.980386
          ],
          [
            -57.582959,
            -37.980441
          ],
          [
            -57.582919,
            -37.980484
          ],
          [
            -57.582854,
            -37.980534
          ],
          [
            -57.582804,
            -37.980561
          ],
          [
            -57.582665,
            -37.980607
          ],
          [
            -57.582595,
            -37.980616
          ],
          [
            -57.582491,
            -37.980614
          ],
          [
            -57.582419,
            -37.980602
          ],
          [
            -57.582356,
            -37.980586
          ],
          [
            -57.582289,
            -37.980555
          ],
          [
            -57.582231,
            -37.98052
          ],
          [
            -57.582193,
            -37.980482
          ],
          [
            -57.582131,
            -37.980421
          ],
          [
            -57.582092,
            -37.980347
          ],
          [
            -57.582078,
            -37.980301
          ],
          [
            -57.582071,
            -37.980233
          ],
          [
            -57.582075,
            -37.980187
          ],
          [
            -57.582094,
            -37.980123
          ],
          [
            -57.582171,
            -37.980006
          ],
          [
            -57.582226,
            -37.979958
          ],
          [
            -57.582277,
            -37.979926
          ],
          [
            -57.58234,
            -37.979897
          ],
          [
            -57.582408,
            -37.979875
          ],
          [
            -57.582504,
            -37.97986
          ],
          [
            -57.582566,
            -37.979858
          ],
          [
            -57.582637,
            -37.979863
          ],
          [
            -57.582713,
            -37.979879
          ],
          [
            -57.582786,
            -37.979905
          ],
          [
            -57.582852,
            -37.97994
          ],
          [
            -57.58291,
            -37.979982
          ],
          [
            -57.582958,
            -37.980032
          ],
          [
            -57.582993,
            -37.980086
          ],
          [
            -57.58302,
            -37.980145
          ],
          [
            -57.583036,
            -37.980204
          ],
          [
            -57.583038,
            -37.980256
          ],
          [
            -57.583021,
            -37.980326
          ],
          [
            -57.582996,
            -37.980386
          ],
          [
            -57.582959,
            -37.980441
          ],
          [
            -57.582919,
            -37.980484
          ],
          [
            -57.582854,
            -37.980534
          ],
          [
            -57.582804,
            -37.980561
          ],
          [
            -57.582665,
            -37.980607
          ],
          [
            -57.582595,
            -37.980616
          ],
          [
            -57.582491,
            -37.980614
          ],
          [
            -57.582419,
            -37.980602
          ],
          [
            -57.582356,
            -37.980586
          ],
          [
            -57.58225,
            -37.980584
          ],
          [
            -57.582172,
            -37.980588
          ],
          [
            -57.582076,
            -37.9806
          ],
          [
            -57.581974,
            -37.98062
          ],
          [
            -57.581874,
            -37.980644
          ],
          [
            -57.581469,
            -37.980768
          ],
          [
            -57.58138,
            -37.980814
          ],
          [
            -57.58044,
            -37.98129
          ],
          [
            -57.579435,
            -37.981799
          ],
          [
            -57.578469,
            -37.982288
          ],
          [
            -57.578461,
            -37.982278
          ],
          [
            -57.577787,
            -37.981444
          ],
          [
            -57.577726,
            -37.981369
          ],
          [
            -57.577697,
            -37.981334
          ],
          [
            -57.577642,
            -37.981269
          ],
          [
            -57.577547,
            -37.981354
          ],
          [
            -57.576971,
            -37.981857
          ],
          [
            -57.576753,
            -37.98203
          ],
          [
            -57.576444,
            -37.98225
          ],
          [
            -57.575926,
            -37.982612
          ],
          [
            -57.575733,
            -37.982746
          ],
          [
            -57.575537,
            -37.982867
          ],
          [
            -57.57512,
            -37.983107
          ],
          [
            -57.574985,
            -37.983151
          ],
          [
            -57.573984,
            -37.98367
          ],
          [
            -57.57405,
            -37.983753
          ],
          [
            -57.574079,
            -37.98379
          ],
          [
            -57.574486,
            -37.984306
          ],
          [
            -57.575476,
            -37.983805
          ],
          [
            -57.575478,
            -37.983807
          ],
          [
            -57.576165,
            -37.984655
          ],
          [
            -57.57517,
            -37.985162
          ],
          [
            -57.574486,
            -37.984306
          ],
          [
            -57.573452,
            -37.98483
          ],
          [
            -57.572518,
            -37.985303
          ],
          [
            -57.57149,
            -37.985824
          ],
          [
            -57.57049,
            -37.98633
          ],
          [
            -57.570435,
            -37.986358
          ],
          [
            -57.569343,
            -37.986901
          ],
          [
            -57.568442,
            -37.987357
          ],
          [
            -57.568362,
            -37.987397
          ],
          [
            -57.56828,
            -37.987439
          ],
          [
            -57.567351,
            -37.987909
          ],
          [
            -57.566887,
            -37.988143
          ],
          [
            -57.566423,
            -37.988378
          ],
          [
            -57.566333,
            -37.988423
          ],
          [
            -57.566344,
            -37.988437
          ],
          [
            -57.567012,
            -37.989297
          ],
          [
            -57.566052,
            -37.989783
          ],
          [
            -57.56508,
            -37.990274
          ],
          [
            -57.564057,
            -37.990796
          ],
          [
            -57.563067,
            -37.9913
          ],
          [
            -57.562379,
            -37.990443
          ],
          [
            -57.562368,
            -37.990429
          ],
          [
            -57.561367,
            -37.990938
          ],
          [
            -57.560552,
            -37.991353
          ],
          [
            -57.560383,
            -37.991439
          ],
          [
            -57.559378,
            -37.99195
          ],
          [
            -57.558386,
            -37.992455
          ],
          [
            -57.557394,
            -37.992959
          ],
          [
            -57.557374,
            -37.992969
          ],
          [
            -57.556362,
            -37.993484
          ],
          [
            -57.555353,
            -37.993997
          ],
          [
            -57.556048,
            -37.994854
          ],
          [
            -57.555062,
            -37.995354
          ],
          [
            -57.554366,
            -37.994499
          ],
          [
            -57.553668,
            -37.993643
          ],
          [
            -57.553026,
            -37.992836
          ],
          [
            -57.552046,
            -37.993332
          ],
          [
            -57.552685,
            -37.994144
          ],
          [
            -57.553381,
            -37.994995
          ],
          [
            -57.553384,
            -37.994999
          ],
          [
            -57.552302,
            -37.995549
          ],
          [
            -57.552278,
            -37.995561
          ],
          [
            -57.551213,
            -37.996103
          ],
          [
            -57.550204,
            -37.996611
          ],
          [
            -57.549192,
            -37.997121
          ],
          [
            -57.548816,
            -37.997319
          ],
          [
            -57.548703,
            -37.997399
          ],
          [
            -57.54864,
            -37.997446
          ],
          [
            -57.548576,
            -37.9975
          ],
          [
            -57.548546,
            -37.997526
          ],
          [
            -57.548534,
            -37.997536
          ],
          [
            -57.548485,
            -37.997588
          ],
          [
            -57.548396,
            -37.997705
          ],
          [
            -57.54835,
            -37.997755
          ],
          [
            -57.548295,
            -37.997784
          ],
          [
            -57.548231,
            -37.997799
          ],
          [
            -57.548165,
            -37.997797
          ],
          [
            -57.548095,
            -37.997775
          ],
          [
            -57.54804,
            -37.997736
          ],
          [
            -57.548005,
            -37.997683
          ],
          [
            -57.547996,
            -37.997625
          ],
          [
            -57.548009,
            -37.997577
          ],
          [
            -57.548038,
            -37.997535
          ],
          [
            -57.548081,
            -37.997501
          ],
          [
            -57.548138,
            -37.997478
          ],
          [
            -57.548201,
            -37.997469
          ],
          [
            -57.548372,
            -37.997444
          ],
          [
            -57.548488,
            -37.997418
          ],
          [
            -57.548606,
            -37.997382
          ],
          [
            -57.548816,
            -37.997319
          ],
          [
            -57.549192,
            -37.997121
          ],
          [
            -57.550204,
            -37.996611
          ],
          [
            -57.551213,
            -37.996103
          ],
          [
            -57.551197,
            -37.996084
          ],
          [
            -57.550509,
            -37.995254
          ],
          [
            -57.549859,
            -37.994438
          ],
          [
            -57.548852,
            -37.994942
          ],
          [
            -57.547843,
            -37.995455
          ],
          [
            -57.546857,
            -37.995959
          ],
          [
            -57.547513,
            -37.996762
          ],
          [
            -57.547586,
            -37.996852
          ],
          [
            -57.54802,
            -37.997421
          ],
          [
            -57.548081,
            -37.997501
          ],
          [
            -57.548138,
            -37.997478
          ],
          [
            -57.548201,
            -37.997469
          ],
          [
            -57.548372,
            -37.997444
          ],
          [
            -57.548488,
            -37.997418
          ],
          [
            -57.548606,
            -37.997382
          ],
          [
            -57.548816,
            -37.997319
          ],
          [
            -57.549192,
            -37.997121
          ],
          [
            -57.549174,
            -37.997099
          ],
          [
            -57.548494,
            -37.99626
          ],
          [
            -57.547843,
            -37.995455
          ],
          [
            -57.546857,
            -37.995959
          ],
          [
            -57.546832,
            -37.995972
          ],
          [
            -57.545881,
            -37.996452
          ],
          [
            -57.546539,
            -37.99726
          ],
          [
            -57.546578,
            -37.997323
          ],
          [
            -57.546961,
            -37.997797
          ],
          [
            -57.54699,
            -37.997832
          ],
          [
            -57.547038,
            -37.997892
          ],
          [
            -57.547054,
            -37.997912
          ],
          [
            -57.547214,
            -37.998109
          ],
          [
            -57.546221,
            -37.99861
          ],
          [
            -57.546208,
            -37.998617
          ],
          [
            -57.545859,
            -37.998794
          ],
          [
            -57.545187,
            -37.999133
          ],
          [
            -57.544205,
            -37.99963
          ],
          [
            -57.543219,
            -38.000128
          ],
          [
            -57.543129,
            -38.000174
          ],
          [
            -57.542287,
            -38.0006
          ],
          [
            -57.542205,
            -38.000641
          ],
          [
            -57.542114,
            -38.000687
          ],
          [
            -57.541705,
            -38.000894
          ],
          [
            -57.541658,
            -38.000914
          ],
          [
            -57.541603,
            -38.000934
          ],
          [
            -57.541607,
            -38.000947
          ],
          [
            -57.541643,
            -38.001076
          ],
          [
            -57.541819,
            -38.001776
          ],
          [
            -57.541834,
            -38.001827
          ],
          [
            -57.541857,
            -38.00189
          ],
          [
            -57.541871,
            -38.001921
          ],
          [
            -57.541899,
            -38.00198
          ],
          [
            -57.541936,
            -38.002045
          ],
          [
            -57.542454,
            -38.002787
          ],
          [
            -57.542507,
            -38.002849
          ],
          [
            -57.543072,
            -38.003542
          ],
          [
            -57.543133,
            -38.003618
          ],
          [
            -57.543191,
            -38.00369
          ],
          [
            -57.54371,
            -38.004338
          ],
          [
            -57.543761,
            -38.004403
          ],
          [
            -57.544823,
            -38.003866
          ],
          [
            -57.544172,
            -38.003067
          ],
          [
            -57.543191,
            -38.003587
          ],
          [
            -57.543133,
            -38.003618
          ],
          [
            -57.543031,
            -38.003673
          ],
          [
            -57.542847,
            -38.00377
          ],
          [
            -57.54281,
            -38.003783
          ],
          [
            -57.542771,
            -38.003792
          ],
          [
            -57.542726,
            -38.0038
          ],
          [
            -57.542661,
            -38.003806
          ],
          [
            -57.542583,
            -38.003808
          ],
          [
            -57.54253,
            -38.003803
          ],
          [
            -57.542468,
            -38.003786
          ],
          [
            -57.542204,
            -38.003188
          ],
          [
            -57.542163,
            -38.003096
          ],
          [
            -57.542125,
            -38.00301
          ],
          [
            -57.541783,
            -38.002159
          ],
          [
            -57.541772,
            -38.002126
          ],
          [
            -57.541721,
            -38.001985
          ],
          [
            -57.541695,
            -38.001918
          ],
          [
            -57.541675,
            -38.001856
          ],
          [
            -57.54166,
            -38.001797
          ],
          [
            -57.541513,
            -38.001142
          ],
          [
            -57.541476,
            -38.000965
          ],
          [
            -57.541458,
            -38.000789
          ],
          [
            -57.541396,
            -38.000249
          ],
          [
            -57.541391,
            -38.000177
          ],
          [
            -57.541392,
            -38.000105
          ],
          [
            -57.541399,
            -38.00001
          ],
          [
            -57.541407,
            -37.99995
          ],
          [
            -57.54142,
            -37.999874
          ],
          [
            -57.541479,
            -37.999579
          ],
          [
            -57.541489,
            -37.999538
          ],
          [
            -57.541511,
            -37.99944
          ],
          [
            -57.541563,
            -37.999226
          ],
          [
            -57.541604,
            -37.999016
          ],
          [
            -57.54161,
            -37.998964
          ],
          [
            -57.541633,
            -37.998916
          ],
          [
            -57.541657,
            -37.998889
          ],
          [
            -57.541695,
            -37.998856
          ],
          [
            -57.541741,
            -37.998832
          ],
          [
            -57.541776,
            -37.998818
          ],
          [
            -57.541829,
            -37.998803
          ],
          [
            -57.5419,
            -37.998795
          ],
          [
            -57.541956,
            -37.998795
          ],
          [
            -57.542017,
            -37.998805
          ],
          [
            -57.542067,
            -37.998824
          ],
          [
            -57.54211,
            -37.998845
          ],
          [
            -57.542147,
            -37.998873
          ],
          [
            -57.542175,
            -37.998904
          ],
          [
            -57.542198,
            -37.998938
          ],
          [
            -57.542214,
            -37.998972
          ],
          [
            -57.542451,
            -37.999185
          ],
          [
            -57.5436,
            -37.998856
          ],
          [
            -57.544724,
            -37.998555
          ],
          [
            -57.545893,
            -37.998229
          ],
          [
            -57.547054,
            -37.997912
          ],
          [
            -57.547595,
            -37.997758
          ],
          [
            -57.547839,
            -37.997677
          ],
          [
            -57.547904,
            -37.997642
          ],
          [
            -57.547908,
            -37.99764
          ],
          [
            -57.548038,
            -37.997535
          ],
          [
            -57.548081,
            -37.997501
          ],
          [
            -57.548138,
            -37.997478
          ],
          [
            -57.548201,
            -37.997469
          ],
          [
            -57.548372,
            -37.997444
          ],
          [
            -57.548488,
            -37.997418
          ],
          [
            -57.548606,
            -37.997382
          ],
          [
            -57.548816,
            -37.997319
          ],
          [
            -57.549192,
            -37.997121
          ],
          [
            -57.550204,
            -37.996611
          ],
          [
            -57.551213,
            -37.996103
          ],
          [
            -57.552302,
            -37.995549
          ],
          [
            -57.553384,
            -37.994999
          ],
          [
            -57.554366,
            -37.994499
          ],
          [
            -57.555353,
            -37.993997
          ],
          [
            -57.556362,
            -37.993484
          ],
          [
            -57.557374,
            -37.992969
          ],
          [
            -57.558386,
            -37.992455
          ],
          [
            -57.559378,
            -37.99195
          ],
          [
            -57.560383,
            -37.991439
          ],
          [
            -57.560552,
            -37.991353
          ],
          [
            -57.561367,
            -37.990938
          ],
          [
            -57.562368,
            -37.990429
          ],
          [
            -57.562455,
            -37.990385
          ],
          [
            -57.563289,
            -37.989963
          ],
          [
            -57.563377,
            -37.989919
          ],
          [
            -57.563457,
            -37.989878
          ],
          [
            -57.564144,
            -37.989531
          ],
          [
            -57.564393,
            -37.989405
          ],
          [
            -57.564707,
            -37.989246
          ],
          [
            -57.56536,
            -37.988916
          ],
          [
            -57.565797,
            -37.988694
          ],
          [
            -57.566238,
            -37.988472
          ],
          [
            -57.566333,
            -37.988423
          ],
          [
            -57.566423,
            -37.988378
          ],
          [
            -57.566887,
            -37.988143
          ],
          [
            -57.567351,
            -37.987909
          ],
          [
            -57.56828,
            -37.987439
          ],
          [
            -57.568362,
            -37.987397
          ],
          [
            -57.568442,
            -37.987357
          ],
          [
            -57.569343,
            -37.986901
          ],
          [
            -57.570435,
            -37.986358
          ],
          [
            -57.57149,
            -37.985824
          ],
          [
            -57.572518,
            -37.985303
          ],
          [
            -57.573452,
            -37.98483
          ],
          [
            -57.574486,
            -37.984306
          ],
          [
            -57.575476,
            -37.983805
          ],
          [
            -57.576475,
            -37.983299
          ],
          [
            -57.577471,
            -37.982794
          ],
          [
            -57.578469,
            -37.982288
          ],
          [
            -57.579435,
            -37.981799
          ],
          [
            -57.58044,
            -37.98129
          ],
          [
            -57.58138,
            -37.980814
          ],
          [
            -57.581469,
            -37.980768
          ],
          [
            -57.581785,
            -37.980526
          ],
          [
            -57.581839,
            -37.98048
          ],
          [
            -57.581888,
            -37.980435
          ],
          [
            -57.581928,
            -37.980391
          ],
          [
            -57.581972,
            -37.980338
          ],
          [
            -57.582022,
            -37.980268
          ],
          [
            -57.582075,
            -37.980187
          ],
          [
            -57.582094,
            -37.980123
          ],
          [
            -57.582171,
            -37.980006
          ],
          [
            -57.582226,
            -37.979958
          ],
          [
            -57.582277,
            -37.979926
          ],
          [
            -57.58234,
            -37.979897
          ],
          [
            -57.582408,
            -37.979875
          ],
          [
            -57.582504,
            -37.97986
          ],
          [
            -57.582566,
            -37.979858
          ],
          [
            -57.582637,
            -37.979863
          ],
          [
            -57.582713,
            -37.979879
          ],
          [
            -57.582766,
            -37.979877
          ],
          [
            -57.582889,
            -37.979884
          ],
          [
            -57.582972,
            -37.979882
          ],
          [
            -57.583053,
            -37.979874
          ],
          [
            -57.583116,
            -37.979861
          ],
          [
            -57.583224,
            -37.97983
          ],
          [
            -57.583356,
            -37.979784
          ],
          [
            -57.583577,
            -37.979702
          ],
          [
            -57.586427,
            -37.978261
          ],
          [
            -57.590414,
            -37.976245
          ],
          [
            -57.592399,
            -37.975241
          ],
          [
            -57.59443,
            -37.974213
          ],
          [
            -57.594523,
            -37.974165
          ],
          [
            -57.595581,
            -37.973627
          ],
          [
            -57.596548,
            -37.973137
          ],
          [
            -57.597539,
            -37.972634
          ],
          [
            -57.598525,
            -37.972134
          ],
          [
            -57.599522,
            -37.971629
          ],
          [
            -57.600526,
            -37.97112
          ],
          [
            -57.601542,
            -37.970604
          ],
          [
            -57.602524,
            -37.970107
          ],
          [
            -57.603533,
            -37.969595
          ],
          [
            -57.605549,
            -37.968573
          ],
          [
            -57.606376,
            -37.968153
          ],
          [
            -57.606462,
            -37.968109
          ],
          [
            -57.606632,
            -37.968024
          ],
          [
            -57.607504,
            -37.967581
          ],
          [
            -57.610506,
            -37.966062
          ],
          [
            -57.613509,
            -37.964548
          ],
          [
            -57.614486,
            -37.964055
          ],
          [
            -57.615494,
            -37.963547
          ],
          [
            -57.616501,
            -37.963039
          ],
          [
            -57.617488,
            -37.962541
          ],
          [
            -57.618513,
            -37.962024
          ],
          [
            -57.618674,
            -37.961943
          ],
          [
            -57.619653,
            -37.961446
          ],
          [
            -57.620642,
            -37.960944
          ],
          [
            -57.621664,
            -37.960427
          ],
          [
            -57.622642,
            -37.95993
          ],
          [
            -57.623643,
            -37.959422
          ],
          [
            -57.624642,
            -37.958916
          ],
          [
            -57.625589,
            -37.958435
          ],
          [
            -57.626614,
            -37.957915
          ],
          [
            -57.626647,
            -37.957956
          ],
          [
            -57.626682,
            -37.957999
          ],
          [
            -57.625657,
            -37.958519
          ],
          [
            -57.62471,
            -37.958999
          ],
          [
            -57.62329,
            -37.95972
          ],
          [
            -57.621731,
            -37.96051
          ],
          [
            -57.620708,
            -37.961029
          ],
          [
            -57.620642,
            -37.960944
          ],
          [
            -57.620576,
            -37.96086
          ],
          [
            -57.619919,
            -37.960082
          ],
          [
            -57.620955,
            -37.959551
          ],
          [
            -57.621566,
            -37.960305
          ],
          [
            -57.621596,
            -37.960342
          ],
          [
            -57.621664,
            -37.960427
          ],
          [
            -57.621731,
            -37.96051
          ],
          [
            -57.620708,
            -37.961029
          ],
          [
            -57.619721,
            -37.96153
          ],
          [
            -57.618743,
            -37.962026
          ],
          [
            -57.61858,
            -37.962108
          ],
          [
            -57.617555,
            -37.962626
          ],
          [
            -57.61657,
            -37.963123
          ],
          [
            -57.615563,
            -37.963631
          ],
          [
            -57.614554,
            -37.96414
          ],
          [
            -57.614533,
            -37.964114
          ],
          [
            -57.614486,
            -37.964055
          ],
          [
            -57.613509,
            -37.964548
          ],
          [
            -57.610506,
            -37.966062
          ],
          [
            -57.610439,
            -37.965979
          ],
          [
            -57.610457,
            -37.96597
          ],
          [
            -57.611476,
            -37.965456
          ],
          [
            -57.61245,
            -37.964965
          ],
          [
            -57.613442,
            -37.964465
          ],
          [
            -57.613509,
            -37.964548
          ],
          [
            -57.613577,
            -37.964633
          ],
          [
            -57.611416,
            -37.965723
          ],
          [
            -57.610576,
            -37.966148
          ],
          [
            -57.607575,
            -37.967669
          ],
          [
            -57.606702,
            -37.968112
          ],
          [
            -57.606479,
            -37.968225
          ],
          [
            -57.606371,
            -37.968282
          ],
          [
            -57.60562,
            -37.968661
          ],
          [
            -57.603604,
            -37.969682
          ],
          [
            -57.603533,
            -37.969595
          ],
          [
            -57.603468,
            -37.969514
          ],
          [
            -57.604435,
            -37.969024
          ],
          [
            -57.605471,
            -37.968498
          ],
          [
            -57.605484,
            -37.968492
          ],
          [
            -57.605549,
            -37.968573
          ],
          [
            -57.60562,
            -37.968661
          ],
          [
            -57.603604,
            -37.969682
          ],
          [
            -57.602595,
            -37.970194
          ],
          [
            -57.601613,
            -37.970692
          ],
          [
            -57.600598,
            -37.971207
          ],
          [
            -57.599622,
            -37.971701
          ],
          [
            -57.599593,
            -37.971716
          ],
          [
            -57.598596,
            -37.972222
          ],
          [
            -57.597609,
            -37.972722
          ],
          [
            -57.596618,
            -37.973224
          ],
          [
            -57.595651,
            -37.973715
          ],
          [
            -57.594592,
            -37.974252
          ],
          [
            -57.594543,
            -37.974277
          ],
          [
            -57.594499,
            -37.974299
          ],
          [
            -57.59443,
            -37.974213
          ],
          [
            -57.594363,
            -37.974131
          ],
          [
            -57.594388,
            -37.974119
          ],
          [
            -57.594407,
            -37.974109
          ],
          [
            -57.594456,
            -37.974084
          ],
          [
            -57.594523,
            -37.974165
          ],
          [
            -57.594592,
            -37.974252
          ],
          [
            -57.595202,
            -37.975012
          ],
          [
            -57.595843,
            -37.97581
          ],
          [
            -57.59647,
            -37.976589
          ],
          [
            -57.597129,
            -37.977383
          ],
          [
            -57.597761,
            -37.978176
          ],
          [
            -57.598436,
            -37.97894
          ],
          [
            -57.598454,
            -37.979035
          ],
          [
            -57.598389,
            -37.979068
          ],
          [
            -57.598193,
            -37.979167
          ],
          [
            -57.597362,
            -37.979588
          ],
          [
            -57.59634,
            -37.980106
          ],
          [
            -57.597028,
            -37.980955
          ],
          [
            -57.598043,
            -37.980443
          ],
          [
            -57.599115,
            -37.979902
          ],
          [
            -57.599749,
            -37.980697
          ],
          [
            -57.600383,
            -37.981483
          ],
          [
            -57.600396,
            -37.9815
          ],
          [
            -57.601026,
            -37.982283
          ],
          [
            -57.601675,
            -37.983084
          ],
          [
            -57.602294,
            -37.983852
          ],
          [
            -57.602305,
            -37.983865
          ],
          [
            -57.602928,
            -37.984636
          ],
          [
            -57.603581,
            -37.985437
          ],
          [
            -57.603586,
            -37.985443
          ],
          [
            -57.604217,
            -37.986229
          ],
          [
            -57.604861,
            -37.987025
          ],
          [
            -57.605526,
            -37.987804
          ],
          [
            -57.606166,
            -37.988577
          ],
          [
            -57.606147,
            -37.988586
          ],
          [
            -57.60509,
            -37.989121
          ],
          [
            -57.604445,
            -37.988327
          ],
          [
            -57.605526,
            -37.987804
          ],
          [
            -57.606166,
            -37.988577
          ],
          [
            -57.606804,
            -37.989371
          ],
          [
            -57.607449,
            -37.990167
          ],
          [
            -57.608047,
            -37.990915
          ],
          [
            -57.608165,
            -37.991059
          ],
          [
            -57.608149,
            -37.991071
          ],
          [
            -57.60724,
            -37.991765
          ],
          [
            -57.606823,
            -37.992082
          ],
          [
            -57.606692,
            -37.99218
          ],
          [
            -57.606379,
            -37.992418
          ],
          [
            -57.605515,
            -37.993073
          ],
          [
            -57.60462,
            -37.993751
          ],
          [
            -57.604488,
            -37.99385
          ],
          [
            -57.603697,
            -37.994445
          ],
          [
            -57.602848,
            -37.995082
          ],
          [
            -57.602832,
            -37.995094
          ],
          [
            -57.601967,
            -37.995749
          ],
          [
            -57.601123,
            -37.996388
          ],
          [
            -57.60102,
            -37.996466
          ],
          [
            -57.600326,
            -37.996991
          ],
          [
            -57.60026,
            -37.997041
          ],
          [
            -57.599367,
            -37.997717
          ],
          [
            -57.598521,
            -37.998358
          ],
          [
            -57.598046,
            -37.998717
          ],
          [
            -57.597966,
            -37.998829
          ],
          [
            -57.597942,
            -37.998886
          ],
          [
            -57.597924,
            -37.998936
          ],
          [
            -57.597908,
            -37.999
          ],
          [
            -57.597901,
            -37.999055
          ],
          [
            -57.597901,
            -37.999118
          ],
          [
            -57.597912,
            -37.999191
          ],
          [
            -57.597928,
            -37.999268
          ],
          [
            -57.597938,
            -37.999303
          ],
          [
            -57.597943,
            -37.999323
          ],
          [
            -57.597965,
            -37.999402
          ],
          [
            -57.598005,
            -37.999454
          ],
          [
            -57.598035,
            -37.999531
          ],
          [
            -57.598044,
            -37.999592
          ],
          [
            -57.59804,
            -37.999655
          ],
          [
            -57.598022,
            -37.999718
          ],
          [
            -57.597995,
            -37.999768
          ],
          [
            -57.597964,
            -37.999805
          ],
          [
            -57.597921,
            -37.999839
          ],
          [
            -57.597879,
            -37.99986
          ],
          [
            -57.597825,
            -37.999883
          ],
          [
            -57.597758,
            -37.999901
          ],
          [
            -57.597709,
            -37.999907
          ],
          [
            -57.597651,
            -37.99991
          ],
          [
            -57.597603,
            -37.999909
          ],
          [
            -57.59754,
            -37.999899
          ],
          [
            -57.597463,
            -37.999869
          ],
          [
            -57.597318,
            -37.999793
          ],
          [
            -57.597219,
            -37.999734
          ],
          [
            -57.597148,
            -37.999688
          ],
          [
            -57.597104,
            -37.999653
          ],
          [
            -57.597069,
            -37.999622
          ],
          [
            -57.597033,
            -37.99959
          ],
          [
            -57.597,
            -37.999557
          ],
          [
            -57.596972,
            -37.999521
          ],
          [
            -57.596947,
            -37.99949
          ],
          [
            -57.59693,
            -37.999453
          ],
          [
            -57.59692,
            -37.999417
          ],
          [
            -57.596909,
            -37.999359
          ],
          [
            -57.596905,
            -37.999281
          ],
          [
            -57.596934,
            -37.999199
          ],
          [
            -57.59698,
            -37.999069
          ],
          [
            -57.597009,
            -37.998988
          ],
          [
            -57.597038,
            -37.998876
          ],
          [
            -57.597049,
            -37.998786
          ],
          [
            -57.597054,
            -37.998734
          ],
          [
            -57.597053,
            -37.998655
          ],
          [
            -57.597047,
            -37.998573
          ],
          [
            -57.597037,
            -37.998508
          ],
          [
            -57.597022,
            -37.998453
          ],
          [
            -57.596996,
            -37.998395
          ],
          [
            -57.596973,
            -37.998353
          ],
          [
            -57.596938,
            -37.9983
          ],
          [
            -57.5969,
            -37.998249
          ],
          [
            -57.596834,
            -37.998161
          ],
          [
            -57.595614,
            -37.996643
          ],
          [
            -57.594495,
            -37.995251
          ],
          [
            -57.594235,
            -37.994936
          ],
          [
            -57.594076,
            -37.994735
          ],
          [
            -57.593899,
            -37.99452
          ],
          [
            -57.593635,
            -37.994186
          ],
          [
            -57.592321,
            -37.992557
          ],
          [
            -57.592276,
            -37.992505
          ],
          [
            -57.592223,
            -37.992449
          ],
          [
            -57.592164,
            -37.992388
          ],
          [
            -57.592159,
            -37.992383
          ],
          [
            -57.592093,
            -37.992321
          ],
          [
            -57.592018,
            -37.992255
          ],
          [
            -57.591928,
            -37.992183
          ],
          [
            -57.591832,
            -37.992117
          ],
          [
            -57.591763,
            -37.992072
          ],
          [
            -57.591704,
            -37.992035
          ],
          [
            -57.591616,
            -37.991979
          ],
          [
            -57.591544,
            -37.991936
          ],
          [
            -57.591462,
            -37.991875
          ],
          [
            -57.591399,
            -37.991816
          ],
          [
            -57.591334,
            -37.991747
          ],
          [
            -57.59128,
            -37.991683
          ],
          [
            -57.591224,
            -37.991606
          ],
          [
            -57.591181,
            -37.991527
          ],
          [
            -57.591142,
            -37.991436
          ],
          [
            -57.591128,
            -37.99138
          ],
          [
            -57.59112,
            -37.991348
          ],
          [
            -57.591075,
            -37.991213
          ],
          [
            -57.591009,
            -37.991026
          ],
          [
            -57.590965,
            -37.990929
          ],
          [
            -57.590909,
            -37.990827
          ],
          [
            -57.590846,
            -37.990708
          ],
          [
            -57.590831,
            -37.990686
          ],
          [
            -57.590777,
            -37.990601
          ],
          [
            -57.58899,
            -37.988394
          ],
          [
            -57.58836,
            -37.987617
          ],
          [
            -57.587541,
            -37.986597
          ],
          [
            -57.58709,
            -37.986034
          ],
          [
            -57.586961,
            -37.985917
          ],
          [
            -57.586687,
            -37.985715
          ],
          [
            -57.58646,
            -37.985568
          ],
          [
            -57.586412,
            -37.985536
          ],
          [
            -57.586275,
            -37.985438
          ],
          [
            -57.58613,
            -37.985299
          ],
          [
            -57.586061,
            -37.985202
          ],
          [
            -57.586011,
            -37.985103
          ],
          [
            -57.585967,
            -37.984979
          ],
          [
            -57.585943,
            -37.984898
          ],
          [
            -57.585872,
            -37.984664
          ],
          [
            -57.58575,
            -37.984405
          ],
          [
            -57.585637,
            -37.984211
          ],
          [
            -57.585499,
            -37.984016
          ],
          [
            -57.584439,
            -37.982717
          ],
          [
            -57.584343,
            -37.982766
          ],
          [
            -57.584325,
            -37.982775
          ],
          [
            -57.583716,
            -37.981968
          ],
          [
            -57.583065,
            -37.981161
          ],
          [
            -57.582773,
            -37.980817
          ],
          [
            -57.582698,
            -37.980749
          ],
          [
            -57.582542,
            -37.980635
          ],
          [
            -57.582491,
            -37.980614
          ],
          [
            -57.582419,
            -37.980602
          ],
          [
            -57.582356,
            -37.980586
          ],
          [
            -57.582289,
            -37.980555
          ],
          [
            -57.582231,
            -37.98052
          ],
          [
            -57.582193,
            -37.980482
          ],
          [
            -57.582131,
            -37.980421
          ],
          [
            -57.582092,
            -37.980347
          ],
          [
            -57.582078,
            -37.980301
          ],
          [
            -57.582071,
            -37.980233
          ],
          [
            -57.582075,
            -37.980187
          ],
          [
            -57.582094,
            -37.980123
          ],
          [
            -57.582171,
            -37.980006
          ],
          [
            -57.582226,
            -37.979958
          ],
          [
            -57.582277,
            -37.979926
          ],
          [
            -57.58234,
            -37.979897
          ],
          [
            -57.582408,
            -37.979875
          ],
          [
            -57.582504,
            -37.97986
          ],
          [
            -57.582566,
            -37.979858
          ],
          [
            -57.582637,
            -37.979863
          ],
          [
            -57.582713,
            -37.979879
          ],
          [
            -57.582786,
            -37.979905
          ],
          [
            -57.582852,
            -37.97994
          ],
          [
            -57.58291,
            -37.979982
          ],
          [
            -57.582958,
            -37.980032
          ],
          [
            -57.582993,
            -37.980086
          ],
          [
            -57.58302,
            -37.980145
          ],
          [
            -57.583036,
            -37.980204
          ],
          [
            -57.583038,
            -37.980256
          ],
          [
            -57.583021,
            -37.980326
          ],
          [
            -57.582996,
            -37.980386
          ],
          [
            -57.582959,
            -37.980441
          ],
          [
            -57.582919,
            -37.980484
          ],
          [
            -57.582854,
            -37.980534
          ],
          [
            -57.582804,
            -37.980561
          ],
          [
            -57.582665,
            -37.980607
          ],
          [
            -57.582595,
            -37.980616
          ],
          [
            -57.582491,
            -37.980614
          ],
          [
            -57.582419,
            -37.980602
          ],
          [
            -57.582356,
            -37.980586
          ],
          [
            -57.58225,
            -37.980584
          ],
          [
            -57.582172,
            -37.980588
          ],
          [
            -57.582076,
            -37.9806
          ],
          [
            -57.581974,
            -37.98062
          ],
          [
            -57.581874,
            -37.980644
          ],
          [
            -57.581469,
            -37.980768
          ],
          [
            -57.58138,
            -37.980814
          ],
          [
            -57.58044,
            -37.98129
          ],
          [
            -57.579435,
            -37.981799
          ],
          [
            -57.578469,
            -37.982288
          ],
          [
            -57.578461,
            -37.982278
          ],
          [
            -57.577787,
            -37.981444
          ],
          [
            -57.577726,
            -37.981369
          ],
          [
            -57.577697,
            -37.981334
          ],
          [
            -57.577642,
            -37.981269
          ],
          [
            -57.577547,
            -37.981354
          ],
          [
            -57.576971,
            -37.981857
          ],
          [
            -57.576753,
            -37.98203
          ],
          [
            -57.576444,
            -37.98225
          ],
          [
            -57.575926,
            -37.982612
          ],
          [
            -57.575733,
            -37.982746
          ],
          [
            -57.575537,
            -37.982867
          ],
          [
            -57.57512,
            -37.983107
          ],
          [
            -57.574985,
            -37.983151
          ],
          [
            -57.573984,
            -37.98367
          ],
          [
            -57.57405,
            -37.983753
          ],
          [
            -57.574079,
            -37.98379
          ],
          [
            -57.574486,
            -37.984306
          ],
          [
            -57.575476,
            -37.983805
          ],
          [
            -57.575478,
            -37.983807
          ],
          [
            -57.576165,
            -37.984655
          ],
          [
            -57.57517,
            -37.985162
          ],
          [
            -57.574486,
            -37.984306
          ],
          [
            -57.573452,
            -37.98483
          ],
          [
            -57.572518,
            -37.985303
          ],
          [
            -57.57149,
            -37.985824
          ],
          [
            -57.57049,
            -37.98633
          ],
          [
            -57.570435,
            -37.986358
          ],
          [
            -57.569343,
            -37.986901
          ],
          [
            -57.568442,
            -37.987357
          ],
          [
            -57.568362,
            -37.987397
          ],
          [
            -57.56828,
            -37.987439
          ],
          [
            -57.567351,
            -37.987909
          ],
          [
            -57.566887,
            -37.988143
          ],
          [
            -57.566423,
            -37.988378
          ],
          [
            -57.566333,
            -37.988423
          ],
          [
            -57.566344,
            -37.988437
          ],
          [
            -57.567012,
            -37.989297
          ],
          [
            -57.566052,
            -37.989783
          ],
          [
            -57.56508,
            -37.990274
          ],
          [
            -57.564057,
            -37.990796
          ],
          [
            -57.563067,
            -37.9913
          ],
          [
            -57.562379,
            -37.990443
          ],
          [
            -57.562368,
            -37.990429
          ],
          [
            -57.561367,
            -37.990938
          ],
          [
            -57.560552,
            -37.991353
          ],
          [
            -57.560383,
            -37.991439
          ],
          [
            -57.559378,
            -37.99195
          ],
          [
            -57.558386,
            -37.992455
          ],
          [
            -57.557394,
            -37.992959
          ],
          [
            -57.557374,
            -37.992969
          ],
          [
            -57.556362,
            -37.993484
          ],
          [
            -57.555353,
            -37.993997
          ],
          [
            -57.556048,
            -37.994854
          ],
          [
            -57.555062,
            -37.995354
          ],
          [
            -57.554366,
            -37.994499
          ],
          [
            -57.553668,
            -37.993643
          ],
          [
            -57.553026,
            -37.992836
          ],
          [
            -57.552046,
            -37.993332
          ],
          [
            -57.552685,
            -37.994144
          ],
          [
            -57.553381,
            -37.994995
          ],
          [
            -57.553384,
            -37.994999
          ],
          [
            -57.552302,
            -37.995549
          ],
          [
            -57.552278,
            -37.995561
          ],
          [
            -57.551213,
            -37.996103
          ],
          [
            -57.550204,
            -37.996611
          ],
          [
            -57.549192,
            -37.997121
          ],
          [
            -57.548816,
            -37.997319
          ],
          [
            -57.548703,
            -37.997399
          ],
          [
            -57.54864,
            -37.997446
          ],
          [
            -57.548576,
            -37.9975
          ],
          [
            -57.548546,
            -37.997526
          ],
          [
            -57.548534,
            -37.997536
          ],
          [
            -57.548485,
            -37.997588
          ],
          [
            -57.548396,
            -37.997705
          ],
          [
            -57.54835,
            -37.997755
          ],
          [
            -57.548295,
            -37.997784
          ],
          [
            -57.548231,
            -37.997799
          ],
          [
            -57.548165,
            -37.997797
          ],
          [
            -57.548095,
            -37.997775
          ],
          [
            -57.54804,
            -37.997736
          ],
          [
            -57.548005,
            -37.997683
          ],
          [
            -57.547996,
            -37.997625
          ],
          [
            -57.548009,
            -37.997577
          ],
          [
            -57.548038,
            -37.997535
          ],
          [
            -57.548081,
            -37.997501
          ],
          [
            -57.548138,
            -37.997478
          ],
          [
            -57.548201,
            -37.997469
          ],
          [
            -57.548372,
            -37.997444
          ],
          [
            -57.548488,
            -37.997418
          ],
          [
            -57.548606,
            -37.997382
          ],
          [
            -57.548816,
            -37.997319
          ],
          [
            -57.549192,
            -37.997121
          ],
          [
            -57.550204,
            -37.996611
          ],
          [
            -57.551213,
            -37.996103
          ],
          [
            -57.551197,
            -37.996084
          ],
          [
            -57.550509,
            -37.995254
          ],
          [
            -57.549859,
            -37.994438
          ],
          [
            -57.548852,
            -37.994942
          ],
          [
            -57.547843,
            -37.995455
          ],
          [
            -57.546857,
            -37.995959
          ],
          [
            -57.547513,
            -37.996762
          ],
          [
            -57.547586,
            -37.996852
          ],
          [
            -57.54802,
            -37.997421
          ],
          [
            -57.548081,
            -37.997501
          ],
          [
            -57.548138,
            -37.997478
          ],
          [
            -57.548201,
            -37.997469
          ],
          [
            -57.548372,
            -37.997444
          ],
          [
            -57.548488,
            -37.997418
          ],
          [
            -57.548606,
            -37.997382
          ],
          [
            -57.548816,
            -37.997319
          ],
          [
            -57.549192,
            -37.997121
          ],
          [
            -57.549174,
            -37.997099
          ],
          [
            -57.548494,
            -37.99626
          ],
          [
            -57.547843,
            -37.995455
          ],
          [
            -57.546857,
            -37.995959
          ],
          [
            -57.546832,
            -37.995972
          ],
          [
            -57.545881,
            -37.996452
          ],
          [
            -57.546539,
            -37.99726
          ],
          [
            -57.546578,
            -37.997323
          ],
          [
            -57.546961,
            -37.997797
          ],
          [
            -57.54699,
            -37.997832
          ],
          [
            -57.547038,
            -37.997892
          ],
          [
            -57.547054,
            -37.997912
          ],
          [
            -57.547214,
            -37.998109
          ],
          [
            -57.546221,
            -37.99861
          ],
          [
            -57.546208,
            -37.998617
          ],
          [
            -57.545859,
            -37.998794
          ],
          [
            -57.545187,
            -37.999133
          ],
          [
            -57.544205,
            -37.99963
          ],
          [
            -57.543219,
            -38.000128
          ],
          [
            -57.543129,
            -38.000174
          ],
          [
            -57.542287,
            -38.0006
          ],
          [
            -57.542205,
            -38.000641
          ],
          [
            -57.542114,
            -38.000687
          ],
          [
            -57.541705,
            -38.000894
          ],
          [
            -57.541658,
            -38.000914
          ],
          [
            -57.541603,
            -38.000934
          ],
          [
            -57.541607,
            -38.000947
          ],
          [
            -57.541643,
            -38.001076
          ],
          [
            -57.541819,
            -38.001776
          ],
          [
            -57.541834,
            -38.001827
          ],
          [
            -57.541857,
            -38.00189
          ],
          [
            -57.541871,
            -38.001921
          ],
          [
            -57.541899,
            -38.00198
          ],
          [
            -57.541936,
            -38.002045
          ],
          [
            -57.542454,
            -38.002787
          ],
          [
            -57.542507,
            -38.002849
          ],
          [
            -57.543072,
            -38.003542
          ],
          [
            -57.543133,
            -38.003618
          ],
          [
            -57.543191,
            -38.00369
          ],
          [
            -57.54371,
            -38.004338
          ],
          [
            -57.543761,
            -38.004403
          ],
          [
            -57.544823,
            -38.003866
          ],
          [
            -57.544172,
            -38.003067
          ],
          [
            -57.543191,
            -38.003587
          ],
          [
            -57.543133,
            -38.003618
          ],
          [
            -57.543191,
            -38.00369
          ],
          [
            -57.54371,
            -38.004338
          ],
          [
            -57.543761,
            -38.004403
          ],
          [
            -57.543846,
            -38.004504
          ],
          [
            -57.544385,
            -38.00516
          ],
          [
            -57.544427,
            -38.005211
          ],
          [
            -57.544477,
            -38.005277
          ],
          [
            -57.545001,
            -38.00591
          ],
          [
            -57.545111,
            -38.006042
          ],
          [
            -57.545805,
            -38.006885
          ],
          [
            -57.54643,
            -38.007645
          ],
          [
            -57.547099,
            -38.008457
          ],
          [
            -57.547744,
            -38.00924
          ],
          [
            -57.548391,
            -38.010026
          ],
          [
            -57.549411,
            -38.009508
          ],
          [
            -57.548773,
            -38.008708
          ],
          [
            -57.547783,
            -38.00922
          ],
          [
            -57.547744,
            -38.00924
          ],
          [
            -57.546792,
            -38.009723
          ],
          [
            -57.545779,
            -38.01024
          ],
          [
            -57.545775,
            -38.010242
          ],
          [
            -57.546413,
            -38.01103
          ],
          [
            -57.547053,
            -38.011822
          ],
          [
            -57.5461,
            -38.012326
          ],
          [
            -57.545074,
            -38.012832
          ],
          [
            -57.545065,
            -38.012836
          ]
        ],
        "type": "LineString"
      },
      "properties": {
        "linea": "512",
        "ramal": "B Luro y Carrillo",
        "nombre": "Línea 512 - B Luro y Carrillo"
      }
    },
    {
      "type": "Feature",
      "geometry": {
        "type": "Point",
        "coordinates": [
          -57.5914817,
          -37.9758084
        ]
      },
      "properties": {
        "linea": "512",
        "ramal": "B Luro y Carrillo",
        "numero_camara": "328",
        "direccion": "Avenida Pedro Luro & Remedios de Escalada, Mar del Plata, Provincia de Buenos Aires, Argentina",
        "orden": null
      }
    },
    {
      "type": "Feature",
      "geometry": {
        "type": "Point",
        "coordinates": [
          -57.590468,
          -37.9763188
        ]
      },
      "properties": {
        "linea": "512",
        "ramal": "B Luro y Carrillo",
        "numero_camara": "344",
        "direccion": "Avenida Pedro Luro & Estado de Israel, Mar del Plata, Provincia de Buenos Aires, Argentina",
        "orden": null
      }
    },
    {
      "type": "Feature",
      "geometry": {
        "type": "Point",
        "coordinates": [
          -57.5863716,
          -37.9781823
        ]
      },
      "properties": {
        "linea": "512",
        "ramal": "B Luro y Carrillo",
        "numero_camara": "60",
        "direccion": "Avenida Pedro Luro & Tres Arroyos, Mar del Plata, Provincia de Buenos Aires, Argentina",
        "orden": null
      }
    },
    {
      "type": "Feature",
      "geometry": {
        "type": "Point",
        "coordinates": [
          -57.5822796,
          -37.9804268
        ]
      },
      "properties": {
        "linea": "512",
        "ramal": "B Luro y Carrillo",
        "numero_camara": "706",
        "direccion": "Champagnat 1564, Mar del Plata, Provincia de Buenos Aires, Argentina",
        "orden": null
      }
    },
    {
      "type": "Feature",
      "geometry": {
        "type": "Point",
        "coordinates": [
          -57.5784575,
          -37.9822802
        ]
      },
      "properties": {
        "linea": "512",
        "ramal": "B Luro y Carrillo",
        "numero_camara": "55",
        "direccion": "Avenida Pedro Luro & Teodoro Bronzini, Mar del Plata, Provincia de Buenos Aires, Argentina",
        "orden": null
      }
    },
    {
      "type": "Feature",
      "geometry": {
        "type": "Point",
        "coordinates": [
          -57.5754804,
          -37.9838062
        ]
      },
      "properties": {
        "linea": "512",
        "ramal": "B Luro y Carrillo",
        "numero_camara": "809",
        "direccion": "Avenida Pedro Luro & México, Mar del Plata, Provincia de Buenos Aires, Argentina",
        "orden": null
      }
    },
    {
      "type": "Feature",
      "geometry": {
        "type": "Point",
        "coordinates": [
          -57.5705099,
          -37.9863535
        ]
      },
      "properties": {
        "linea": "512",
        "ramal": "B Luro y Carrillo",
        "numero_camara": "707",
        "direccion": "Avenida Pedro Luro & Avenida Juan Héctor Jara, Mar del Plata, Provincia de Buenos Aires, Argentina",
        "orden": null
      }
    },
    {
      "type": "Feature",
      "geometry": {
        "type": "Point",
        "coordinates": [
          -57.5663445,
          -37.9884359
        ]
      },
      "properties": {
        "linea": "512",
        "ramal": "B Luro y Carrillo",
        "numero_camara": "58",
        "direccion": "Avenida Pedro Luro & Italia, Mar del Plata, Provincia de Buenos Aires, Argentina",
        "orden": null
      }
    },
    {
      "type": "Feature",
      "geometry": {
        "type": "Point",
        "coordinates": [
          -57.5623817,
          -37.9904422
        ]
      },
      "properties": {
        "linea": "512",
        "ramal": "B Luro y Carrillo",
        "numero_camara": "50",
        "direccion": "Avenida Pedro Luro & San Juan, Mar del Plata, Provincia de Buenos Aires, Argentina",
        "orden": null
      }
    },
    {
      "type": "Feature",
      "geometry": {
        "type": "Point",
        "coordinates": [
          -57.5573939,
          -37.9929584
        ]
      },
      "properties": {
        "linea": "512",
        "ramal": "B Luro y Carrillo",
        "numero_camara": "11",
        "direccion": "Avenida Pedro Luro & 14 de Julio, Mar del Plata, Provincia de Buenos Aires, Argentina",
        "orden": null
      }
    },
    {
      "type": "Feature",
      "geometry": {
        "type": "Point",
        "coordinates": [
          -57.5533841,
          -37.9949944
        ]
      },
      "properties": {
        "linea": "512",
        "ramal": "B Luro y Carrillo",
        "numero_camara": "59",
        "direccion": "Avenida Pedro Luro & Salta, Mar del Plata, Provincia de Buenos Aires, Argentina",
        "orden": null
      }
    },
    {
      "type": "Feature",
      "geometry": {
        "type": "Point",
        "coordinates": [
          -57.5522649,
          -37.9955452
        ]
      },
      "properties": {
        "linea": "512",
        "ramal": "B Luro y Carrillo",
        "numero_camara": "596",
        "direccion": "Avenida Independencia & Avenida Pedro Luro, Mar del Plata, Provincia de Buenos Aires, Argentina",
        "orden": null
      }
    },
    {
      "type": "Feature",
      "geometry": {
        "type": "Point",
        "coordinates": [
          -57.5512087,
          -37.9960776
        ]
      },
      "properties": {
        "linea": "512",
        "ramal": "B Luro y Carrillo",
        "numero_camara": "56",
        "direccion": "Avenida Pedro Luro & Catamarca, Mar del Plata, Provincia de Buenos Aires, Argentina",
        "orden": null
      }
    },
    {
      "type": "Feature",
      "geometry": {
        "type": "Point",
        "coordinates": [
          -57.5491867,
          -37.9970932
        ]
      },
      "properties": {
        "linea": "512",
        "ramal": "B Luro y Carrillo",
        "numero_camara": "57",
        "direccion": "Avenida Pedro Luro & Hipólito Yrigoyen, Mar del Plata, Provincia de Buenos Aires, Argentina",
        "orden": null
      }
    },
    {
      "type": "Feature",
      "geometry": {
        "type": "Point",
        "coordinates": [
          -57.5470348,
          -37.9978925
        ]
      },
      "properties": {
        "linea": "512",
        "ramal": "B Luro y Carrillo",
        "numero_camara": "85",
        "direccion": "Diagonal Alberdi Sur & San Luis, Mar del Plata, Provincia de Buenos Aires, Argentina",
        "orden": null
      }
    },
    {
      "type": "Feature",
      "geometry": {
        "type": "Point",
        "coordinates": [
          -57.5462189,
          -37.9986082
        ]
      },
      "properties": {
        "linea": "512",
        "ramal": "B Luro y Carrillo",
        "numero_camara": "436",
        "direccion": "Avenida Pedro Luro & Córdoba, Mar del Plata, Provincia de Buenos Aires, Argentina",
        "orden": null
      }
    },
    {
      "type": "Feature",
      "geometry": {
        "type": "Point",
        "coordinates": [
          -57.5415961,
          -38.0009489
        ]
      },
      "properties": {
        "linea": "512",
        "ramal": "B Luro y Carrillo",
        "numero_camara": "705",
        "direccion": "Avenida Pedro Luro & Buenos Aires, Mar del Plata, Provincia de Buenos Aires, Argentina",
        "orden": null
      }
    },
    {
      "type": "Feature",
      "geometry": {
        "type": "Point",
        "coordinates": [
          -57.5431804,
          -38.0035742
        ]
      },
      "properties": {
        "linea": "512",
        "ramal": "B Luro y Carrillo",
        "numero_camara": "80",
        "direccion": "Buenos Aires 1900, Mar del Plata, Provincia de Buenos Aires, Argentina",
        "orden": null
      }
    },
    {
      "type": "Feature",
      "geometry": {
        "type": "Point",
        "coordinates": [
          -57.6266578,
          -37.9579504
        ]
      },
      "properties": {
        "linea": "512",
        "ramal": "B Luro y Carrillo",
        "numero_camara": "304",
        "direccion": "Avenida Pedro Luro & Carrillo, Mar del Plata, Provincia de Buenos Aires, Argentina",
        "orden": 526
      }
    },
    {
      "type": "Feature",
      "geometry": {
        "type": "Point",
        "coordinates": [
          -57.6215874,
          -37.9602937
        ]
      },
      "properties": {
        "linea": "512",
        "ramal": "B Luro y Carrillo",
        "numero_camara": "531",
        "direccion": "Avenida Pedro Luro & Ciudad de Rosario, Mar del Plata, Provincia de Buenos Aires, Argentina",
        "orden": 527
      }
    },
    {
      "type": "Feature",
      "geometry": {
        "type": "Point",
        "coordinates": [
          -57.6145542,
          -37.9641034
        ]
      },
      "properties": {
        "linea": "512",
        "ramal": "B Luro y Carrillo",
        "numero_camara": "329",
        "direccion": "Avenida Pedro Luro & Portugal, Mar del Plata, Provincia de Buenos Aires, Argentina",
        "orden": 528
      }
    },
    {
      "type": "Feature",
      "geometry": {
        "type": "Point",
        "coordinates": [
          -57.6104459,
          -37.9659557
        ]
      },
      "properties": {
        "linea": "512",
        "ramal": "B Luro y Carrillo",
        "numero_camara": "532",
        "direccion": "Avenida Pedro Luro & Leguizamón Onésimo, Mar del Plata, Provincia de Buenos Aires, Argentina",
        "orden": 529
      }
    },
    {
      "type": "Feature",
      "geometry": {
        "type": "Point",
        "coordinates": [
          -57.6054788,
          -37.9685081
        ]
      },
      "properties": {
        "linea": "512",
        "ramal": "B Luro y Carrillo",
        "numero_camara": "305",
        "direccion": "Avenida Pedro Luro & Pigüé, Mar del Plata, Provincia de Buenos Aires, Argentina",
        "orden": 530
      }
    },
    {
      "type": "Feature",
      "geometry": {
        "type": "Point",
        "coordinates": [
          -57.5996104,
          -37.9716862
        ]
      },
      "properties": {
        "linea": "512",
        "ramal": "B Luro y Carrillo",
        "numero_camara": "159",
        "direccion": "Avenida Pedro Luro & José María Calaza, Mar del Plata, Provincia de Buenos Aires, Argentina",
        "orden": 531
      }
    },
    {
      "type": "Feature",
      "geometry": {
        "type": "Point",
        "coordinates": [
          -57.5943871,
          -37.9741178
        ]
      },
      "properties": {
        "linea": "512",
        "ramal": "B Luro y Carrillo",
        "numero_camara": "54",
        "direccion": "Avenida Pedro Luro & Avenida Doctor Arturo Alió, Mar del Plata, Provincia de Buenos Aires, Argentina",
        "orden": 532
      }
    },
    {
      "type": "Feature",
      "geometry": {
        "type": "Point",
        "coordinates": [
          -57.5984115,
          -37.9790964
        ]
      },
      "properties": {
        "linea": "512",
        "ramal": "B Luro y Carrillo",
        "numero_camara": "22",
        "direccion": "Avenida Colon y Avenida Doctor Arturo Alió, Mar del Plata, Provincia de Buenos Aires, Argentina",
        "orden": 534
      }
    },
    {
      "type": "Feature",
      "geometry": {
        "type": "Point",
        "coordinates": [
          -57.6003789,
          -37.9814854
        ]
      },
      "properties": {
        "linea": "512",
        "ramal": "B Luro y Carrillo",
        "numero_camara": "129",
        "direccion": "Gascón & Avenida Doctor Arturo Alió, Mar del Plata, Provincia de Buenos Aires, Argentina",
        "orden": 535
      }
    },
    {
      "type": "Feature",
      "geometry": {
        "type": "Point",
        "coordinates": [
          -57.6022941,
          -37.9838523
        ]
      },
      "properties": {
        "linea": "512",
        "ramal": "B Luro y Carrillo",
        "numero_camara": "231",
        "direccion": "Avenida Doctor Arturo Alió & Garay, Mar del Plata, Provincia de Buenos Aires, Argentina",
        "orden": 536
      }
    },
    {
      "type": "Feature",
      "geometry": {
        "type": "Point",
        "coordinates": [
          -57.6035806,
          -37.9854445
        ]
      },
      "properties": {
        "linea": "512",
        "ramal": "B Luro y Carrillo",
        "numero_camara": "16",
        "direccion": "Avenida Doctor Arturo Alió & Alvarado, Mar del Plata, Provincia de Buenos Aires, Argentina",
        "orden": 537
      }
    },
    {
      "type": "Feature",
      "geometry": {
        "type": "Point",
        "coordinates": [
          -57.6061479,
          -37.9885865
        ]
      },
      "properties": {
        "linea": "512",
        "ramal": "B Luro y Carrillo",
        "numero_camara": "475",
        "direccion": "Avenida Doctor Arturo Alió & Rodríguez Peña,, Mar del Plata, Provincia de Buenos Aires, Argentina",
        "orden": 538
      }
    },
    {
      "type": "Feature",
      "geometry": {
        "type": "Point",
        "coordinates": [
          -57.6081559,
          -37.9910767
        ]
      },
      "properties": {
        "linea": "512",
        "ramal": "B Luro y Carrillo",
        "numero_camara": "123",
        "direccion": "Avenida Juan B. Justo & Avenida Doctor Arturo Alió, Mar del Plata, Provincia de Buenos Aires, Argentina",
        "orden": 539
      }
    },
    {
      "type": "Feature",
      "geometry": {
        "type": "Point",
        "coordinates": [
          -57.6028352,
          -37.9950965
        ]
      },
      "properties": {
        "linea": "512",
        "ramal": "B Luro y Carrillo",
        "numero_camara": "47",
        "direccion": "Avenida Juan B. Justo & Fernández J. N. , Mar del Plata, Provincia de Buenos Aires, Argentina",
        "orden": 540
      }
    },
    {
      "type": "Feature",
      "geometry": {
        "type": "Point",
        "coordinates": [
          -57.5979268,
          -37.9993052
        ]
      },
      "properties": {
        "linea": "512",
        "ramal": "B Luro y Carrillo",
        "numero_camara": "122",
        "direccion": "Avenida Centenario, Mar del Plata, Provincia de Buenos Aires, Argentina",
        "orden": 541
      }
    },
    {
      "type": "Feature",
      "geometry": {
        "type": "Point",
        "coordinates": [
          -57.5843333,
          -37.9827538
        ]
      },
      "properties": {
        "linea": "512",
        "ramal": "B Luro y Carrillo",
        "numero_camara": "586",
        "direccion": "Avenida M. Champagnat & Belgrano, Mar del Plata, Provincia de Buenos Aires, Argentina",
        "orden": 542
      }
    },
    {
      "type": "Feature",
      "geometry": {
        "type": "Point",
        "coordinates": [
          -57.5822796,
          -37.9804268
        ]
      },
      "properties": {
        "linea": "512",
        "ramal": "B Luro y Carrillo",
        "numero_camara": "706",
        "direccion": "Champagnat 1564, Mar del Plata, Provincia de Buenos Aires, Argentina",
        "orden": 543
      }
    },
    {
      "type": "Feature",
      "geometry": {
        "type": "Point",
        "coordinates": [
          -57.5784575,
          -37.9822802
        ]
      },
      "properties": {
        "linea": "512",
        "ramal": "B Luro y Carrillo",
        "numero_camara": "55",
        "direccion": "Avenida Pedro Luro & Teodoro Bronzini, Mar del Plata, Provincia de Buenos Aires, Argentina",
        "orden": 544
      }
    },
    {
      "type": "Feature",
      "geometry": {
        "type": "Point",
        "coordinates": [
          -57.5754804,
          -37.9838062
        ]
      },
      "properties": {
        "linea": "512",
        "ramal": "B Luro y Carrillo",
        "numero_camara": "809",
        "direccion": "Avenida Pedro Luro & México, Mar del Plata, Provincia de Buenos Aires, Argentina",
        "orden": 545
      }
    },
    {
      "type": "Feature",
      "geometry": {
        "type": "Point",
        "coordinates": [
          -57.5705099,
          -37.9863535
        ]
      },
      "properties": {
        "linea": "512",
        "ramal": "B Luro y Carrillo",
        "numero_camara": "707",
        "direccion": "Avenida Pedro Luro & Avenida Juan Héctor Jara, Mar del Plata, Provincia de Buenos Aires, Argentina",
        "orden": 546
      }
    },
    {
      "type": "Feature",
      "geometry": {
        "type": "Point",
        "coordinates": [
          -57.5663445,
          -37.9884359
        ]
      },
      "properties": {
        "linea": "512",
        "ramal": "B Luro y Carrillo",
        "numero_camara": "58",
        "direccion": "Avenida Pedro Luro & Italia, Mar del Plata, Provincia de Buenos Aires, Argentina",
        "orden": 547
      }
    },
    {
      "type": "Feature",
      "geometry": {
        "type": "Point",
        "coordinates": [
          -57.5623817,
          -37.9904422
        ]
      },
      "properties": {
        "linea": "512",
        "ramal": "B Luro y Carrillo",
        "numero_camara": "50",
        "direccion": "Avenida Pedro Luro & San Juan, Mar del Plata, Provincia de Buenos Aires, Argentina",
        "orden": 548
      }
    },
    {
      "type": "Feature",
      "geometry": {
        "type": "Point",
        "coordinates": [
          -57.5573939,
          -37.9929584
        ]
      },
      "properties": {
        "linea": "512",
        "ramal": "B Luro y Carrillo",
        "numero_camara": "11",
        "direccion": "Avenida Pedro Luro & 14 de Julio, Mar del Plata, Provincia de Buenos Aires, Argentina",
        "orden": 549
      }
    },
    {
      "type": "Feature",
      "geometry": {
        "type": "Point",
        "coordinates": [
          -57.5533841,
          -37.9949944
        ]
      },
      "properties": {
        "linea": "512",
        "ramal": "B Luro y Carrillo",
        "numero_camara": "59",
        "direccion": "Avenida Pedro Luro & Salta, Mar del Plata, Provincia de Buenos Aires, Argentina",
        "orden": 550
      }
    },
    {
      "type": "Feature",
      "geometry": {
        "type": "Point",
        "coordinates": [
          -57.5522649,
          -37.9955452
        ]
      },
      "properties": {
        "linea": "512",
        "ramal": "B Luro y Carrillo",
        "numero_camara": "596",
        "direccion": "Avenida Independencia & Avenida Pedro Luro, Mar del Plata, Provincia de Buenos Aires, Argentina",
        "orden": 551
      }
    },
    {
      "type": "Feature",
      "geometry": {
        "type": "Point",
        "coordinates": [
          -57.5512087,
          -37.9960776
        ]
      },
      "properties": {
        "linea": "512",
        "ramal": "B Luro y Carrillo",
        "numero_camara": "56",
        "direccion": "Avenida Pedro Luro & Catamarca, Mar del Plata, Provincia de Buenos Aires, Argentina",
        "orden": 552
      }
    },
    {
      "type": "Feature",
      "geometry": {
        "type": "Point",
        "coordinates": [
          -57.5491867,
          -37.9970932
        ]
      },
      "properties": {
        "linea": "512",
        "ramal": "B Luro y Carrillo",
        "numero_camara": "57",
        "direccion": "Avenida Pedro Luro & Hipólito Yrigoyen, Mar del Plata, Provincia de Buenos Aires, Argentina",
        "orden": 553
      }
    },
    {
      "type": "Feature",
      "geometry": {
        "type": "Point",
        "coordinates": [
          -57.5470348,
          -37.9978925
        ]
      },
      "properties": {
        "linea": "512",
        "ramal": "B Luro y Carrillo",
        "numero_camara": "85",
        "direccion": "Diagonal Alberdi Sur & San Luis, Mar del Plata, Provincia de Buenos Aires, Argentina",
        "orden": 554
      }
    },
    {
      "type": "Feature",
      "geometry": {
        "type": "Point",
        "coordinates": [
          -57.5462189,
          -37.9986082
        ]
      },
      "properties": {
        "linea": "512",
        "ramal": "B Luro y Carrillo",
        "numero_camara": "436",
        "direccion": "Avenida Pedro Luro & Córdoba, Mar del Plata, Provincia de Buenos Aires, Argentina",
        "orden": 555
      }
    },
    {
      "type": "Feature",
      "geometry": {
        "type": "Point",
        "coordinates": [
          -57.5415961,
          -38.0009489
        ]
      },
      "properties": {
        "linea": "512",
        "ramal": "B Luro y Carrillo",
        "numero_camara": "705",
        "direccion": "Avenida Pedro Luro & Buenos Aires, Mar del Plata, Provincia de Buenos Aires, Argentina",
        "orden": 556
      }
    },
    {
      "type": "Feature",
      "geometry": {
        "type": "Point",
        "coordinates": [
          -57.5431804,
          -38.0035742
        ]
      },
      "properties": {
        "linea": "512",
        "ramal": "B Luro y Carrillo",
        "numero_camara": "80",
        "direccion": "Buenos Aires 1900, Mar del Plata, Provincia de Buenos Aires, Argentina",
        "orden": 557
      }
    },
    {
      "type": "Feature",
      "geometry": {
        "type": "Point",
        "coordinates": [
          -57.5477932,
          -38.0092309
        ]
      },
      "properties": {
        "linea": "512",
        "ramal": "B Luro y Carrillo",
        "numero_camara": "571",
        "direccion": "Alberti & Buenos Aires, Mar del Plata, Provincia de Buenos Aires, Argentina",
        "orden": 558
      }
    },
    {
      "type": "Feature",
      "geometry": {
        "type": "Point",
        "coordinates": [
          -57.5457799,
          -38.0102407
        ]
      },
      "properties": {
        "linea": "512",
        "ramal": "B Luro y Carrillo",
        "numero_camara": "570",
        "direccion": "Alberti & Arenales, Mar del Plata, Provincia de Buenos Aires, Argentina",
        "orden": 559
      }
    },
    {
      "type": "Feature",
      "geometry": {
        "type": "Point",
        "coordinates": [
          -57.5450599,
          -38.0128302
        ]
      },
      "properties": {
        "linea": "512",
        "ramal": "B Luro y Carrillo",
        "numero_camara": "457",
        "direccion": "Garay & Las Heras, Mar del Plata, Provincia de Buenos Aires, Argentina",
        "orden": 560
      }
    },
    {
      "type": "Feature",
      "geometry": {
        "coordinates": [
          [
            -57.591492,
            -37.975821
          ],
          [
            -57.590484,
            -37.97633
          ],
          [
            -57.590473,
            -37.976317
          ],
          [
            -57.590414,
            -37.976245
          ],
          [
            -57.586427,
            -37.978261
          ],
          [
            -57.586361,
            -37.97818
          ],
          [
            -57.586368,
            -37.978177
          ],
          [
            -57.587355,
            -37.977677
          ],
          [
            -57.588367,
            -37.977165
          ],
          [
            -57.589358,
            -37.976664
          ],
          [
            -57.590348,
            -37.976163
          ],
          [
            -57.590414,
            -37.976245
          ],
          [
            -57.590484,
            -37.97633
          ],
          [
            -57.589492,
            -37.976832
          ],
          [
            -57.588504,
            -37.977332
          ],
          [
            -57.587482,
            -37.977849
          ],
          [
            -57.586498,
            -37.978347
          ],
          [
            -57.585514,
            -37.978845
          ],
          [
            -57.584511,
            -37.979352
          ],
          [
            -57.583513,
            -37.979857
          ],
          [
            -57.583446,
            -37.979892
          ],
          [
            -57.583393,
            -37.97992
          ],
          [
            -57.583325,
            -37.979961
          ],
          [
            -57.583057,
            -37.980195
          ],
          [
            -57.583038,
            -37.980256
          ],
          [
            -57.583021,
            -37.980326
          ],
          [
            -57.582996,
            -37.980386
          ],
          [
            -57.582959,
            -37.980441
          ],
          [
            -57.582919,
            -37.980484
          ],
          [
            -57.582854,
            -37.980534
          ],
          [
            -57.582804,
            -37.980561
          ],
          [
            -57.582665,
            -37.980607
          ],
          [
            -57.582595,
            -37.980616
          ],
          [
            -57.582491,
            -37.980614
          ],
          [
            -57.582419,
            -37.980602
          ],
          [
            -57.582356,
            -37.980586
          ],
          [
            -57.582289,
            -37.980555
          ],
          [
            -57.582231,
            -37.98052
          ],
          [
            -57.582193,
            -37.980482
          ]
        ],
        "type": "LineString"
      },
      "properties": {
        "linea": "512",
        "ramal": "GARAY Y SAR.",
        "nombre": "Línea 512 - GARAY Y SAR."
      }
    },
    {
      "type": "Feature",
      "geometry": {
        "type": "Point",
        "coordinates": [
          -57.5914817,
          -37.9758084
        ]
      },
      "properties": {
        "linea": "512",
        "ramal": "GARAY Y SAR.",
        "numero_camara": "328",
        "direccion": "Avenida Pedro Luro & Remedios de Escalada, Mar del Plata, Provincia de Buenos Aires, Argentina",
        "orden": 561
      }
    },
    {
      "type": "Feature",
      "geometry": {
        "type": "Point",
        "coordinates": [
          -57.590468,
          -37.9763188
        ]
      },
      "properties": {
        "linea": "512",
        "ramal": "GARAY Y SAR.",
        "numero_camara": "344",
        "direccion": "Avenida Pedro Luro & Estado de Israel, Mar del Plata, Provincia de Buenos Aires, Argentina",
        "orden": 562
      }
    },
    {
      "type": "Feature",
      "geometry": {
        "type": "Point",
        "coordinates": [
          -57.5863716,
          -37.9781823
        ]
      },
      "properties": {
        "linea": "512",
        "ramal": "GARAY Y SAR.",
        "numero_camara": "60",
        "direccion": "Avenida Pedro Luro & Tres Arroyos, Mar del Plata, Provincia de Buenos Aires, Argentina",
        "orden": 563
      }
    },
    {
      "type": "Feature",
      "geometry": {
        "type": "Point",
        "coordinates": [
          -57.5822796,
          -37.9804268
        ]
      },
      "properties": {
        "linea": "512",
        "ramal": "GARAY Y SAR.",
        "numero_camara": "706",
        "direccion": "Champagnat 1564, Mar del Plata, Provincia de Buenos Aires, Argentina",
        "orden": 564
      }
    }
  ]
}